{"version": 0.6, "generator": "Overpass API 0.7.62.5 1bd436f1", "osm3s": {"timestamp_osm_base": "2025-03-24T11:13:00Z", "copyright": "The data included in this document is from www.openstreetmap.org. The data is made available under ODbL."}, "elements": [{"type": "node", "id": 317727897, "lat": 52.2462815, "lon": 21.0823889}, {"type": "node", "id": 317727898, "lat": 52.2461565, "lon": 21.0823702}, {"type": "node", "id": 317727899, "lat": 52.2462568, "lon": 21.0828145}, {"type": "node", "id": 317727900, "lat": 52.2461319, "lon": 21.0827946}, {"type": "node", "id": 317727933, "lat": 52.246274, "lon": 21.0825167}, {"type": "node", "id": 317727934, "lat": 52.2462641, "lon": 21.0826882}, {"type": "node", "id": 317727935, "lat": 52.2462462, "lon": 21.0826853}, {"type": "node", "id": 317727936, "lat": 52.2462562, "lon": 21.0825138}, {"type": "node", "id": 334336290, "lat": 52.2091799, "lon": 20.9723021}, {"type": "node", "id": 334336293, "lat": 52.2090244, "lon": 20.9727701}, {"type": "node", "id": 334336296, "lat": 52.2093126, "lon": 20.9724163}, {"type": "node", "id": 334336299, "lat": 52.2091566, "lon": 20.972884}, {"type": "node", "id": 334336327, "lat": 52.2091491, "lon": 20.9723974}, {"type": "node", "id": 334336330, "lat": 52.2090566, "lon": 20.9726705}, {"type": "node", "id": 334336331, "lat": 52.2092846, "lon": 20.9725028}, {"type": "node", "id": 334336332, "lat": 52.2091835, "lon": 20.972801}, {"type": "node", "id": 334336333, "lat": 52.2091659, "lon": 20.9724119}, {"type": "node", "id": 334336335, "lat": 52.2090756, "lon": 20.9726869}, {"type": "node", "id": 334336337, "lat": 52.2091727, "lon": 20.9727917}, {"type": "node", "id": 334336338, "lat": 52.2092701, "lon": 20.9724903}, {"type": "node", "id": 1566166274, "lat": 52.322408, "lon": 20.9397121, "tags": {"addr:city": "Warszawa", "addr:housenumber": "24a", "addr:street": "Nowodworska", "amenity": "childcare", "check_date": "2023-08-12", "contact:email": "kontakt@zlobek-puchatek.pl", "contact:phone": "22 6149302", "contact:website": "zlobek-puchatek.pl", "name": "\u017b\u0142obek Puchatek"}}, {"type": "node", "id": 1723064149, "lat": 52.2456853, "lon": 20.9449999}, {"type": "node", "id": 1728450710, "lat": 52.1238877, "lon": 21.0234436}, {"type": "node", "id": 1914537216, "lat": 52.3343465, "lon": 20.9363584, "tags": {"amenity": "childcare", "check_date": "2024-02-09", "name": "Przedszkolel terapeutyczne kamyk zielony"}}, {"type": "node", "id": 2242847178, "lat": 52.3281702, "lon": 20.9458234}, {"type": "node", "id": 2242847185, "lat": 52.3285221, "lon": 20.9463388}, {"type": "node", "id": 2242847188, "lat": 52.3282516, "lon": 20.9456427}, {"type": "node", "id": 2242847189, "lat": 52.3286579, "lon": 20.9461953}, {"type": "node", "id": 2309855299, "lat": 52.3233922, "lon": 20.9384074, "tags": {"addr:housenumber": "35", "addr:street": "Nowodworska", "amenity": "childcare", "check_date": "2024-02-10", "name": "Ciepe\u0142ko", "website": "http://www.ciepelko.eu/"}}, {"type": "node", "id": 3397265660, "lat": 52.2460059, "lon": 20.9548193}, {"type": "node", "id": 3397265662, "lat": 52.2460774, "lon": 20.9563274}, {"type": "node", "id": 3397268627, "lat": 52.2465027, "lon": 20.9547566}, {"type": "node", "id": 3397268660, "lat": 52.2465742, "lon": 20.9562646}, {"type": "node", "id": 3423754162, "lat": 52.2460392, "lon": 20.9555207}, {"type": "node", "id": 3423754531, "lat": 52.2463505, "lon": 20.9547758}, {"type": "node", "id": 3423754546, "lat": 52.2464166, "lon": 20.9562843}, {"type": "node", "id": 3423754551, "lat": 52.2464303, "lon": 20.9562818}, {"type": "node", "id": 3423754558, "lat": 52.2465285, "lon": 20.9553002}, {"type": "node", "id": 3423754560, "lat": 52.2465397, "lon": 20.9555372}, {"type": "node", "id": 3423754565, "lat": 52.2465569, "lon": 20.9562676}, {"type": "node", "id": 3423754570, "lat": 52.2465608, "lon": 20.9559819}, {"type": "node", "id": 3423754571, "lat": 52.2465622, "lon": 20.9560125, "tags": {"barrier": "gate"}}, {"type": "node", "id": 3423754572, "lat": 52.2465638, "lon": 20.9560444}, {"type": "node", "id": 3424639359, "lat": 52.2463315, "lon": 20.9562951}, {"type": "node", "id": 3430735382, "lat": 52.2464927, "lon": 20.9562748}, {"type": "node", "id": 3432172181, "lat": 52.2465293, "lon": 20.9553166}, {"type": "node", "id": 3432172182, "lat": 52.2465345, "lon": 20.9554273, "tags": {"entrance": "main"}}, {"type": "node", "id": 3439190640, "lat": 52.246526, "lon": 20.9552482}, {"type": "node", "id": 3439190641, "lat": 52.2465434, "lon": 20.9556161}, {"type": "node", "id": 3900662772, "lat": 52.245185, "lon": 20.9452402}, {"type": "node", "id": 4090416175, "lat": 52.2631085, "lon": 20.9858086, "tags": {"addr:city": "Warszawa", "addr:city:simc": "0918123", "addr:housenumber": "29", "addr:postcode": "01-515", "addr:street": "Aleja Wojska Polskiego", "amenity": "childcare", "capacity": "23", "contact:facebook": "https://www.facebook.com/people/Madurar-Pracownia-Rodziny-Madurar/100063592356350/", "email": "madurar@op.pl", "isced:level": "0", "mobile": "+48 511 142 057", "name": "Pracownia Rodziny Madurar", "opening_hours": "Mo-Fr 08:00-17:00", "operator": "Julia Podejko-Coutinho", "wheelchair": "no"}}, {"type": "node", "id": 4295643562, "lat": 52.3247121, "lon": 21.0559455, "tags": {"addr:city": "Warszawa", "addr:housenumber": "13", "addr:postcode": "03-370", "addr:street": "Leona Berensona", "amenity": "childcare", "contact:email": "biala.laczka@gmail.com", "name": "Bia\u0142a \u0142\u0105czka", "opening_hours": "Mo-Fr 07:00-18:00", "website": "http://www.zlobekbialoleka.waw.pl/"}}, {"type": "node", "id": 4311822263, "lat": 52.1238734, "lon": 21.024353}, {"type": "node", "id": 4358673979, "lat": 52.200219, "lon": 20.9134223, "tags": {"addr:city": "Warszawa", "addr:housenumber": "4b", "addr:postcode": "02-482", "addr:street": "Solipska", "amenity": "childcare", "check_date:opening_hours": "2021-01-03", "email": "male.psotki@gmail.com", "name": "Ma\u0142e psotki", "opening_hours": "Mo-Fr 07:00-19:00", "website": "https://www.malepsotki.waw.pl/"}}, {"type": "node", "id": 4382943233, "lat": 52.2516558, "lon": 21.2293771}, {"type": "node", "id": 4388295919, "lat": 52.2090668, "lon": 20.9725525}, {"type": "node", "id": 4388295920, "lat": 52.2091077, "lon": 20.9725877}, {"type": "node", "id": 4388295921, "lat": 52.2090933, "lon": 20.9724705}, {"type": "node", "id": 4388295922, "lat": 52.2091353, "lon": 20.9725067}, {"type": "node", "id": 4779745170, "lat": 52.2470404, "lon": 20.9432152, "tags": {"addr:city": "Warszawa", "addr:housenumber": "118", "addr:postcode": "01-434", "addr:street": "Obozowa", "amenity": "childcare", "capacity": "10", "email": "ekoskrzat@przedszkolewola.pl", "isced:level": "0", "mobile": "+48 797 316 373", "name": "Chata Eko Skrzata", "official_name": "Klub Malucha Chata Eko-Skrzata", "opening_hours": "Mo-Fr 6:45-17:30", "operator": "Chata Eko Skrzata Sp. z o.o.", "source:amenity": "Rejestr \u017b\u0142obk\u00f3w na dzie\u0144 13.01.2023", "website": "http://www.przedszkolewola.pl/"}}, {"type": "node", "id": 5232287861, "lat": 52.2850635, "lon": 20.932076}, {"type": "node", "id": 5232287862, "lat": 52.28489, "lon": 20.9320691}, {"type": "node", "id": 5232287863, "lat": 52.2848882, "lon": 20.9321902}, {"type": "node", "id": 5232287864, "lat": 52.2847941, "lon": 20.9321864}, {"type": "node", "id": 5232287865, "lat": 52.2847971, "lon": 20.9319811}, {"type": "node", "id": 5232287866, "lat": 52.2846662, "lon": 20.9319759}, {"type": "node", "id": 5232287867, "lat": 52.2846601, "lon": 20.9323864}, {"type": "node", "id": 5232287868, "lat": 52.2850109, "lon": 20.9324003}, {"type": "node", "id": 5232287869, "lat": 52.2850616, "lon": 20.9322056}, {"type": "node", "id": 5232287875, "lat": 52.2850138, "lon": 20.9322037}, {"type": "node", "id": 6163936685, "lat": 52.2391697, "lon": 20.9678612, "tags": {"amenity": "childcare", "check_date": "2022-07-23", "email": "hello@pomelo.edu.pl", "name": "Pomelo", "opening_hours": "Mo-Fr 07:30-17:00", "website": "https://www.pomelo.edu.pl/"}}, {"type": "node", "id": 6163936785, "lat": 52.2401383, "lon": 20.9700272, "tags": {"addr:street": "Jana D\u0142ugosza", "amenity": "childcare", "check_date": "2023-11-10", "name": "Ogr\u00f3dek Pomelo"}}, {"type": "node", "id": 6690841653, "lat": 52.3111209, "lon": 21.0599971, "tags": {"amenity": "childcare", "name": "\u017b\u0142obek nr 59"}}, {"type": "node", "id": 6694155686, "lat": 52.3109325, "lon": 20.9204917, "tags": {"addr:city": "Warszawa", "addr:city:simc": "0918123", "addr:housenumber": "9A", "addr:postcode": "01-980", "addr:street": "Samog\u0142oska", "amenity": "childcare", "name": "Dzienny opiekun", "operator": "\u017b\u0142obek nr 15"}}, {"type": "node", "id": 6694168954, "lat": 52.2740553, "lon": 20.9759211, "tags": {"amenity": "childcare", "name": "Opiekun nr 9", "website": "https://zlobki.waw.pl/nasze-placowki/dzienni-opiekunowie/zoliborz/opiekun-nr-9-ul-jana-chryzostoma-paska-14/"}}, {"type": "node", "id": 6694212209, "lat": 52.2017953, "lon": 20.8708552, "tags": {"amenity": "childcare", "check_date": "2024-09-22", "name": "\u017b\u0142obek nr 48"}}, {"type": "node", "id": 6694249251, "lat": 52.2370465, "lon": 20.9604146, "tags": {"amenity": "childcare", "name": "\u017b\u0142obek nr 19"}}, {"type": "node", "id": 6694777207, "lat": 52.2717166, "lon": 20.9408768, "tags": {"addr:housenumber": "95 m. 138", "addr:street": "W\u0142adys\u0142awa Broniewskiego", "amenity": "childcare", "name": "\u015awiat Bobasa", "opening_hours": "Mo-Fr 07:30-17:00", "phone": "+48 511 480 810", "website": "http://swiatbobaska.pl/"}}, {"type": "node", "id": 6694994023, "lat": 52.262442, "lon": 21.0310522, "tags": {"addr:housenumber": "3A", "addr:street": "Karola Szymanowskiego", "amenity": "childcare", "name": "\u017b\u0142obek nr 11"}}, {"type": "node", "id": 6695035622, "lat": 52.2462754, "lon": 20.9547853}, {"type": "node", "id": 6695039531, "lat": 52.2350426, "lon": 20.9683723, "tags": {"amenity": "childcare", "capacity": "89", "email": "zlobek35@zlobki.waw.pl", "isced:level": "0", "name": "\u017b\u0142obek nr 35", "nursery": "yes", "opening_hours": "Mo-Fr 07:00-17:30", "operator": "Zesp\u00f3\u0142 \u017b\u0142obk\u00f3w Miasta Sto\u0142ecznego Warszawy", "operator:website": "www.zlobki.waw.pl", "phone": "+48 723 248 051", "source:amenity": "Rejestr \u017b\u0142obk\u00f3w na dzie\u0144 13.01.2023", "website": "https://zlobki.waw.pl/nasze-placowki/zlobki/wola/zlobek-nr-35-ul-dzialdowska-8a/"}}, {"type": "node", "id": 6695815255, "lat": 52.2385982, "lon": 21.0952822, "tags": {"amenity": "childcare", "email": "kontakt@krainausmiechu.waw.pl", "name": "Klub Malucha \"Kraina U\u015bmiechu\"", "opening_hours": "Mo-Fr 07:00-17:30", "website": "https://krainausmiechu.waw.pl/"}}, {"type": "node", "id": 6695818035, "lat": 52.2397844, "lon": 21.0800974, "tags": {"addr:housenumber": "5A", "addr:street": "Spalinowa", "amenity": "childcare", "email": "kontakt@krainausmiechu.waw.pl", "name": "Klub Malucha \"Kraina U\u015bmiechu\"", "opening_hours": "Mo-Fr 07:00-17:30", "website": "https://krainausmiechu.waw.pl/"}}, {"type": "node", "id": 6695845218, "lat": 52.2380079, "lon": 21.0289643, "tags": {"addr:door": "37", "addr:housenumber": "22/24", "addr:street": "Dobra", "amenity": "childcare", "check_date": "2024-04-28", "email": "kontakt@kolorowemisie.pl", "name": "Klub Malucha \"Kolorowe Misie\"", "opening_hours": "Mo-Fr 07:30-18:00", "phone": "+48 694 294 863", "website": "https://kolorowemisie.pl/"}}, {"type": "node", "id": 6695860757, "lat": 52.2238535, "lon": 21.0352454, "tags": {"addr:housenumber": "16/18", "addr:street": "Rozbrat", "amenity": "childcare", "email": "klubikdomowka@gmail.com", "name": "Klubik Dzieci\u0119cy \"Dom\u00f3wka\"", "opening_hours": "Mo-Fr 07:30-17:30", "phone": "+48 503 094 663", "website": "https://klubikdomowka.pl/"}}, {"type": "node", "id": 6695867557, "lat": 52.2229397, "lon": 20.940099, "tags": {"amenity": "childcare", "check_date": "2022-11-04", "email": "plaskowo.warszawa@gmail.com", "name": "Klub Malucha \"Pl\u0105seczki\"", "phone": "+48 22 487 16 70", "website": "http://www.plaskowo.pl/klub-malucha-zlobek-plaseczki/"}}, {"type": "node", "id": 6695870609, "lat": 52.2770017, "lon": 20.9896578, "tags": {"amenity": "childcare", "email": "klubikdomowka@gmail.com", "name": "Klubik Dzieci\u0119cy \"Dom\u00f3wka\"", "opening_hours": "Mo-Fr 07:30-17:30", "phone": "+48 503 094 663", "website": "https://klubikdomowka.pl/"}}, {"type": "node", "id": 6695903875, "lat": 52.2227516, "lon": 20.9030342, "tags": {"amenity": "childcare", "email": "usmiechnietabuzka@wp.pl", "name": "Klub Maluszka \"U\u015bmiechni\u0119ta Bu\u017aka\"", "opening_hours": "Mo-Fr 07:00-18:00", "phone": "+48 515 411 171"}}, {"type": "node", "id": 6709805534, "lat": 52.2797479, "lon": 20.9530426, "tags": {"addr:city": "Warszawa", "addr:housenumber": "37", "addr:postcode": "01-817", "addr:street": "Jana Kasprowicza", "amenity": "childcare", "email": "info@puzzelklubmalucha.pl", "name": "Klub Maluch \"Puzzel\"", "phone": "+48 501 554 854", "website": "https://www.puzzelklubmalucha.pl/"}}, {"type": "node", "id": 6967781084, "lat": 52.1241662, "lon": 21.0232869, "tags": {"entrance": "main"}}, {"type": "node", "id": 6967848885, "lat": 52.1238031, "lon": 21.0243439}, {"type": "node", "id": 6967848887, "lat": 52.1238735, "lon": 21.0241768}, {"type": "node", "id": 6967848888, "lat": 52.1238644, "lon": 21.0241415}, {"type": "node", "id": 6967848889, "lat": 52.1238599, "lon": 21.0241068}, {"type": "node", "id": 6967848890, "lat": 52.1238636, "lon": 21.0240312}, {"type": "node", "id": 6967848891, "lat": 52.1238875, "lon": 21.0239655}, {"type": "node", "id": 6967848892, "lat": 52.1239094, "lon": 21.0239001}, {"type": "node", "id": 6967848893, "lat": 52.1238985, "lon": 21.0238289}, {"type": "node", "id": 6967848894, "lat": 52.1238856, "lon": 21.0237585}, {"type": "node", "id": 6967848895, "lat": 52.12388, "lon": 21.023721}, {"type": "node", "id": 6967848896, "lat": 52.12389, "lon": 21.0236101}, {"type": "node", "id": 6967848897, "lat": 52.1238987, "lon": 21.0234441}, {"type": "node", "id": 6967848898, "lat": 52.1241657, "lon": 21.0231577}, {"type": "node", "id": 6967848899, "lat": 52.1237974, "lon": 21.0231603}, {"type": "node", "id": 7021616475, "lat": 52.2246296, "lon": 20.9457987, "tags": {"amenity": "childcare", "check_date": "2025-02-12", "name": "Sensoludki", "website": "https://sensoludki.pl"}}, {"type": "node", "id": 7023555919, "lat": 52.2243275, "lon": 20.949629, "tags": {"amenity": "childcare", "check_date": "2025-03-01", "name": "Big Little Things"}}, {"type": "node", "id": 7200712458, "lat": 52.286029, "lon": 20.9294259, "tags": {"addr:city": "Warszawa", "addr:housenumber": "13D", "addr:postcode": "01-909", "addr:street": "Sokratesa", "amenity": "childcare", "email": "biuro@kokoimuu.pl", "name": "Koko i Muu \u017c\u0142obek muzyczny", "opening_hours": "Mo-Fr 07:00-18:00", "phone": "+48 518 230 204", "website": "http://www.kokoimuu.pl/"}}, {"type": "node", "id": 7321703756, "lat": 52.2396544, "lon": 21.1216208, "tags": {"addr:city": "Warszawa", "addr:housenumber": "39", "addr:street": "Biskupia", "amenity": "childcare", "name": "Mamagu"}}, {"type": "node", "id": 7367752945, "lat": 52.3281575, "lon": 20.9458431, "tags": {"entrance": "yes"}}, {"type": "node", "id": 7367752960, "lat": 52.3285371, "lon": 20.946316}, {"type": "node", "id": 7427493070, "lat": 52.2067012, "lon": 21.0642937, "tags": {"addr:city": "Warszawa", "addr:country": "PL", "addr:housenumber": "5", "addr:postcode": "00-713", "addr:street": "Batalionu AK \u201eBa\u0142tyk\u201d", "addr:unit": "U2", "amenity": "childcare", "contact:facebook": "https://www.facebook.com/WesolyPingwinek", "name": "Weso\u0142y Pingwinek", "nursery": "yes", "opening_hours": "Mo-Fr 07:30-18:00", "website": "https://wesolypingwinek.edu.pl/"}}, {"type": "node", "id": 7486747281, "lat": 52.3286289, "lon": 20.9462518, "tags": {"entrance": "yes"}}, {"type": "node", "id": 7533981910, "lat": 52.2421779, "lon": 20.9869371, "tags": {"access": "private", "barrier": "gate", "motorcar": "yes"}}, {"type": "node", "id": 7533981911, "lat": 52.2419514, "lon": 20.9862154, "tags": {"access": "private", "barrier": "gate", "motorcar": "yes"}}, {"type": "node", "id": 7533981912, "lat": 52.2423708, "lon": 20.9867682}, {"type": "node", "id": 7533981915, "lat": 52.241912, "lon": 20.9871649}, {"type": "node", "id": 7533981918, "lat": 52.2416813, "lon": 20.986449}, {"type": "node", "id": 7533981919, "lat": 52.2421351, "lon": 20.9860542}, {"type": "node", "id": 7822910680, "lat": 52.2055794, "lon": 20.8801791, "tags": {"amenity": "childcare", "check_date": "2024-05-20", "name": "\u017b\u0142obek Norlandia", "opening_hours": "Mo-Fr 08:00-18:00; Sa,PH off", "phone": "+48 502 458 195", "website": "https://ursus.norlandiaprzedszkola.pl/"}}, {"type": "node", "id": 8058890156, "lat": 52.2090544, "lon": 21.0635908, "tags": {"addr:city": "Warszawa", "addr:housenumber": "67", "addr:postcode": "00-712", "addr:street": "Bluszcza\u0144ska", "amenity": "childcare", "contact:facebook": "https://www.facebook.com/babypandazlobek", "contact:instagram": "babypandazlobek", "name": "Baby Panda", "phone": "+48 500 003 814", "website": "https://www.zlobeksiekierki.pl/"}}, {"type": "node", "id": 8225947581, "lat": 52.1403812, "lon": 21.0449178}, {"type": "node", "id": 8225947597, "lat": 52.1403336, "lon": 21.0444855}, {"type": "node", "id": 8225947598, "lat": 52.140096, "lon": 21.0444724}, {"type": "node", "id": 8225947599, "lat": 52.1400972, "lon": 21.0446833}, {"type": "node", "id": 8225947600, "lat": 52.140087, "lon": 21.0446825}, {"type": "node", "id": 8225947601, "lat": 52.1400873, "lon": 21.0448429}, {"type": "node", "id": 8225947604, "lat": 52.1404751, "lon": 21.0448412}, {"type": "node", "id": 8225947605, "lat": 52.140476, "lon": 21.0445811}, {"type": "node", "id": 8225947606, "lat": 52.1404923, "lon": 21.0445801}, {"type": "node", "id": 8225947607, "lat": 52.1404904, "lon": 21.0442557}, {"type": "node", "id": 8225947608, "lat": 52.1403314, "lon": 21.0442549}, {"type": "node", "id": 8376906311, "lat": 52.1403821, "lon": 21.0448642}, {"type": "node", "id": 8376906316, "lat": 52.1405085, "lon": 21.0442314}, {"type": "node", "id": 8376912917, "lat": 52.1405074, "lon": 21.0448434}, {"type": "node", "id": 8376912924, "lat": 52.1403823, "lon": 21.0448433}, {"type": "node", "id": 8376912925, "lat": 52.1403823, "lon": 21.044855, "tags": {"barrier": "gate"}}, {"type": "node", "id": 8376912929, "lat": 52.1400969, "lon": 21.0446503}, {"type": "node", "id": 8376912933, "lat": 52.1403234, "lon": 21.0442567, "tags": {"barrier": "gate"}}, {"type": "node", "id": 8376912957, "lat": 52.1403312, "lon": 21.0442409}, {"type": "node", "id": 8376912958, "lat": 52.1400887, "lon": 21.0442546}, {"type": "node", "id": 8376912959, "lat": 52.1400209, "lon": 21.0443699}, {"type": "node", "id": 8376912960, "lat": 52.1399698, "lon": 21.0444103}, {"type": "node", "id": 8376912961, "lat": 52.1399436, "lon": 21.0443764}, {"type": "node", "id": 8376912962, "lat": 52.1398823, "lon": 21.0443924}, {"type": "node", "id": 8376912965, "lat": 52.1397186, "lon": 21.044664}, {"type": "node", "id": 8376912966, "lat": 52.1397324, "lon": 21.0449977}, {"type": "node", "id": 8388324083, "lat": 52.2009589, "lon": 20.8576623}, {"type": "node", "id": 8388324084, "lat": 52.200971, "lon": 20.8576678}, {"type": "node", "id": 8388324085, "lat": 52.2008946, "lon": 20.8581455}, {"type": "node", "id": 8388324086, "lat": 52.2008811, "lon": 20.8581397}, {"type": "node", "id": 8388324087, "lat": 52.2008779, "lon": 20.8581594}, {"type": "node", "id": 8388324088, "lat": 52.2010469, "lon": 20.8582324}, {"type": "node", "id": 8388324089, "lat": 52.2010501, "lon": 20.8582126}, {"type": "node", "id": 8388324090, "lat": 52.2010418, "lon": 20.858209}, {"type": "node", "id": 8388324091, "lat": 52.2010717, "lon": 20.858026}, {"type": "node", "id": 8388324092, "lat": 52.2010895, "lon": 20.8580336}, {"type": "node", "id": 8388324093, "lat": 52.2011075, "lon": 20.8579225}, {"type": "node", "id": 8388324094, "lat": 52.2010894, "lon": 20.8579147}, {"type": "node", "id": 8388324095, "lat": 52.2011192, "lon": 20.8577317}, {"type": "node", "id": 8388324096, "lat": 52.2011279, "lon": 20.8577354}, {"type": "node", "id": 8388324097, "lat": 52.2011311, "lon": 20.8577156}, {"type": "node", "id": 8388324098, "lat": 52.2009621, "lon": 20.8576426}, {"type": "node", "id": 8429419394, "lat": 52.2218467, "lon": 20.9328394, "tags": {"amenity": "childcare", "check_date": "2024-10-28", "name": "Pierwsze Kroczki", "opening_hours": "Mo-Fr 06:30-18:00", "website": "https://pierwszekroczki.edu.pl"}}, {"type": "node", "id": 8442976871, "lat": 52.2788603, "lon": 20.9842105, "tags": {"addr:city": "Warszawa", "addr:housenumber": "4", "addr:postcode": "01-652", "addr:street": "Potocka", "amenity": "childcare", "name": "\u017b\u0142obek Ba\u015bniowy Potok Klub Malucha", "opening_hours": "Mo-Fr 08:00-17:00", "phone": "+48 514 487 130", "website": "https://basniowypotok.pl"}}, {"type": "node", "id": 8454028867, "lat": 52.2610146, "lon": 21.0243507, "tags": {"amenity": "childcare", "check_date": "2023-04-28", "name": "Ma\u0142e szcz\u0119\u015bcia"}}, {"type": "node", "id": 8459021048, "lat": 52.2250093, "lon": 21.2440625, "tags": {"addr:city": "Warszawa", "addr:city:simc": "0921728", "addr:housenumber": "4C", "addr:postcode": "05-077", "addr:street": "Aleja Marsza\u0142ka J\u00f3zefa Pi\u0142sudskiego", "amenity": "childcare", "capacity": "14", "email": "sekretariat@lesneskrzaty.edu.pl", "isced:level": "0", "name": "Le\u015bne Skrzaty", "nursery": "yes", "official_name": "\u017b\u0142obek Le\u015bne Skrzaty", "opening_hours": "Mo-Fr 6:00-19:00", "operator:type": "private", "phone": "+48 605 329 947", "source:addr": "mapa.um.warszawa.pl", "source:amenity": "Rejestr \u017b\u0142obk\u00f3w na dzie\u0144 13.01.2023", "website": "http://lesneskrzaty.edu.pl/", "wheelchair": "yes"}}, {"type": "node", "id": 8482576779, "lat": 52.2490039, "lon": 21.0301187, "tags": {"amenity": "childcare", "name": "Kraina Motyli"}}, {"type": "node", "id": 8706739501, "lat": 52.2928883, "lon": 21.0310423, "tags": {"amenity": "childcare", "name": "Centrum terapii Ma\u0142y Rycerz"}}, {"type": "node", "id": 8780837266, "lat": 52.1238872, "lon": 21.0233651}, {"type": "node", "id": 8780837267, "lat": 52.1241668, "lon": 21.0233572}, {"type": "node", "id": 8780837268, "lat": 52.1241018, "lon": 21.0233614}, {"type": "node", "id": 8780837269, "lat": 52.1241656, "lon": 21.0232113}, {"type": "node", "id": 8780837270, "lat": 52.1238989, "lon": 21.0235769}, {"type": "node", "id": 8780837271, "lat": 52.1238822, "lon": 21.0236441}, {"type": "node", "id": 8780837272, "lat": 52.1238784, "lon": 21.0236841}, {"type": "node", "id": 8780837273, "lat": 52.1238913, "lon": 21.0237947}, {"type": "node", "id": 8780837274, "lat": 52.1239085, "lon": 21.0238642}, {"type": "node", "id": 8780837275, "lat": 52.1239003, "lon": 21.0239395}, {"type": "node", "id": 8780837276, "lat": 52.123872, "lon": 21.0239914}, {"type": "node", "id": 8780837277, "lat": 52.1238579, "lon": 21.0240691}, {"type": "node", "id": 8785521832, "lat": 52.2363004, "lon": 21.1000082, "tags": {"amenity": "childcare", "email": "biuro@klubdudusia.pl", "name": "Klub Dudusia", "phone": "+48 538 206 208", "website": "https://klubdudusia.pl/"}}, {"type": "node", "id": 8820647052, "lat": 52.1707181, "lon": 21.0815417}, {"type": "node", "id": 8820647108, "lat": 52.1707846, "lon": 21.0814737}, {"type": "node", "id": 8820647169, "lat": 52.1707909, "lon": 21.08149}, {"type": "node", "id": 8820647230, "lat": 52.1708104, "lon": 21.0815409}, {"type": "node", "id": 8820647288, "lat": 52.1708584, "lon": 21.0816658}, {"type": "node", "id": 8820647316, "lat": 52.1708669, "lon": 21.0816878}, {"type": "node", "id": 8820647373, "lat": 52.1708004, "lon": 21.0817558}, {"type": "node", "id": 8880091500, "lat": 52.2513716, "lon": 21.2286581}, {"type": "node", "id": 8880091501, "lat": 52.2513477, "lon": 21.2293441}, {"type": "node", "id": 8880091502, "lat": 52.251405, "lon": 21.228041}, {"type": "node", "id": 8880091506, "lat": 52.2520154, "lon": 21.228141}, {"type": "node", "id": 8880091507, "lat": 52.2519576, "lon": 21.2294216}, {"type": "node", "id": 8907849051, "lat": 52.1300935, "lon": 21.0732662, "tags": {"addr:city": "Warszawa", "addr:housenumber": "5", "addr:postcode": "02-796", "addr:street": "Stefana Dembego", "addr:suburb": "Ursyn\u00f3w", "amenity": "childcare", "email": "fundacja@lesnagrupa.pl", "name": "Le\u015bna Grupa", "phone": "+48 601 054 047", "website": "https://lesnagrupa.pl/"}}, {"type": "node", "id": 9066900723, "lat": 52.2366406, "lon": 21.0852578, "tags": {"amenity": "childcare", "name": "Sosenka", "phone": "+48 535 343 838", "website": "https://zlobeksosenka.pl/"}}, {"type": "node", "id": 9130229764, "lat": 52.3286464, "lon": 20.9463058}, {"type": "node", "id": 9130229765, "lat": 52.3286196, "lon": 20.9462675}, {"type": "node", "id": 9130229766, "lat": 52.3285842, "lon": 20.9464009}, {"type": "node", "id": 9130229769, "lat": 52.3283901, "lon": 20.9461084}, {"type": "node", "id": 9130229770, "lat": 52.328375, "lon": 20.9461314}, {"type": "node", "id": 9130229771, "lat": 52.3282725, "lon": 20.9459519}, {"type": "node", "id": 9130229772, "lat": 52.3282491, "lon": 20.9459959}, {"type": "node", "id": 9130229773, "lat": 52.3281497, "lon": 20.9458552}, {"type": "node", "id": 9130229774, "lat": 52.3281214, "lon": 20.9457386}, {"type": "node", "id": 9130229775, "lat": 52.3282294, "lon": 20.9456772}, {"type": "node", "id": 9130229777, "lat": 52.3283312, "lon": 20.9457548}, {"type": "node", "id": 9130229778, "lat": 52.3283384, "lon": 20.9457437}, {"type": "node", "id": 9130229779, "lat": 52.3283637, "lon": 20.9457797}, {"type": "node", "id": 9130229780, "lat": 52.3283374, "lon": 20.9458297}, {"type": "node", "id": 9130229781, "lat": 52.3283764, "lon": 20.9458848}, {"type": "node", "id": 9130229782, "lat": 52.3283986, "lon": 20.9458506}, {"type": "node", "id": 9130229783, "lat": 52.3284782, "lon": 20.9459622}, {"type": "node", "id": 9130229784, "lat": 52.3284854, "lon": 20.9459513}, {"type": "node", "id": 9130229785, "lat": 52.3285107, "lon": 20.9459875}, {"type": "node", "id": 9130229786, "lat": 52.3284844, "lon": 20.9460369}, {"type": "node", "id": 9130229787, "lat": 52.3285233, "lon": 20.9460918}, {"type": "node", "id": 9130229788, "lat": 52.3285456, "lon": 20.9460577}, {"type": "node", "id": 9130229789, "lat": 52.328625, "lon": 20.9461701}, {"type": "node", "id": 9130229790, "lat": 52.3286324, "lon": 20.9461588}, {"type": "node", "id": 9300339539, "lat": 52.1241209, "lon": 21.023158}, {"type": "node", "id": 9300375945, "lat": 52.1241669, "lon": 21.0233603}, {"type": "node", "id": 9394368426, "lat": 52.2462015, "lon": 21.0822915}, {"type": "node", "id": 9394368430, "lat": 52.2461682, "lon": 21.0828868}, {"type": "node", "id": 9394368447, "lat": 52.2461966, "lon": 21.0823767}, {"type": "node", "id": 9394368453, "lat": 52.2461269, "lon": 21.0828804}, {"type": "node", "id": 9394368481, "lat": 52.2461615, "lon": 21.0822859}, {"type": "node", "id": 9394368491, "lat": 52.2461733, "lon": 21.0828005}, {"type": "node", "id": 9442963504, "lat": 52.2204938, "lon": 20.930024, "tags": {"amenity": "childcare", "check_date": "2024-11-17", "description": "\u017b\u0142obek sensoryczny", "name": "Planeta Urwis\u00f3w"}}, {"type": "node", "id": 9570784618, "lat": 52.1431372, "lon": 21.0085158, "tags": {"amenity": "childcare", "capacity": "14", "contact:facebook": "https://www.facebook.com/przedszkole.warszawa/", "contact:instagram": "https://www.instagram.com/owocoweprzedszkole/", "email": "przedszkole@owocoweprzedszkole.pl", "isced:level": "0", "mobile": "+48 509 155 141", "name": "Owocowy Punkt", "official_name": "Klub dzieci\u0119cy \"Owocowy Punkt\"", "opening_hours": "Mo-Fr 08:00-18:00", "operator": "Ma\u0142gorzata Koch", "operator:type": "private", "phone": "+48 222702889", "ref:regon": "146440007", "ref:rspo": "85200", "source:amenity": "Rejestr \u017b\u0142obk\u00f3w na dzie\u0144 13.01.2023", "website": "https://www.owocoweprzedszkole.pl"}}, {"type": "node", "id": 9600753764, "lat": 52.2396373, "lon": 21.0251331, "tags": {"addr:city": "Warszawa", "addr:city:simc": "0918123", "addr:housenumber": "10/16", "addr:postcode": "00-345", "addr:street": "Drewniana", "amenity": "childcare", "capacity": "60", "check_date": "2024-06-14", "email": "zlobek25@zlobki.waw.pl", "isced:level": "0", "mobile": "+48 723 248 062", "name": "\u017b\u0142obek nr 25 \"Syrena\"", "opening_hours": "Mo-Fr 07:00-17:30", "operator": "Zesp\u00f3\u0142 \u017b\u0142obk\u00f3w Miasta Sto\u0142ecznego Warszawy", "source:amenity": "Rejestr \u017b\u0142obk\u00f3w na dzie\u0144 13.01.2023", "website": "https://zlobki.waw.pl/"}}, {"type": "node", "id": 9682547878, "lat": 52.1977009, "lon": 20.8990322, "tags": {"amenity": "childcare", "name": "\u017b\u0142obek Bia\u0142y Mi\u015b"}}, {"type": "node", "id": 9683189598, "lat": 52.1906758, "lon": 20.8911626}, {"type": "node", "id": 9683189599, "lat": 52.1906957, "lon": 20.8911967}, {"type": "node", "id": 9683189600, "lat": 52.1906996, "lon": 20.8912402}, {"type": "node", "id": 9683189601, "lat": 52.19079, "lon": 20.891487}, {"type": "node", "id": 9683189602, "lat": 52.1908585, "lon": 20.8916252}, {"type": "node", "id": 9683189603, "lat": 52.1909336, "lon": 20.8917447}, {"type": "node", "id": 9683189604, "lat": 52.1909955, "lon": 20.8918316}, {"type": "node", "id": 9683189605, "lat": 52.1911154, "lon": 20.8919573}, {"type": "node", "id": 9683189606, "lat": 52.1911496, "lon": 20.8918704}, {"type": "node", "id": 9683189607, "lat": 52.1912619, "lon": 20.8919822}, {"type": "node", "id": 9683189608, "lat": 52.1914047, "lon": 20.8916034}, {"type": "node", "id": 9683189609, "lat": 52.1913152, "lon": 20.8915041}, {"type": "node", "id": 9683189610, "lat": 52.1911915, "lon": 20.8913038}, {"type": "node", "id": 9683189611, "lat": 52.1912008, "lon": 20.8912562}, {"type": "node", "id": 9683189612, "lat": 52.191174, "lon": 20.8911943}, {"type": "node", "id": 9683189613, "lat": 52.1911354, "lon": 20.8911952}, {"type": "node", "id": 9683189614, "lat": 52.1910497, "lon": 20.8910167}, {"type": "node", "id": 9683189615, "lat": 52.1910079, "lon": 20.8907963}, {"type": "node", "id": 9683189616, "lat": 52.1906415, "lon": 20.8909949}, {"type": "node", "id": 9823639726, "lat": 52.2462512, "lon": 21.0825999, "tags": {"entrance": "yes"}}, {"type": "node", "id": 9916939485, "lat": 52.1424344, "lon": 21.0623392, "tags": {"amenity": "childcare", "name": "Pluszowy Domek", "phone": "+48 509578617", "website": "http://pluszowydomek.pl"}}, {"type": "node", "id": 9942708510, "lat": 52.2083663, "lon": 20.89182, "tags": {"addr:city": "Warszawa", "addr:housenumber": "2B", "addr:postcode": "02-401", "addr:street": "Pola Karoli\u0144skie", "amenity": "childcare", "name": "\u017b\u0142obek i Przedszkole dwuj\u0119zyczne Tuptu W\u0142ochy", "opening_hours": "Mo-Fr 07:00-18:00; Sa,PH off", "website": "https://tuptu.pl/"}}, {"type": "node", "id": 9963848759, "lat": 52.328635, "lon": 20.9462385}, {"type": "node", "id": 9963848760, "lat": 52.3285664, "lon": 20.9463687}, {"type": "node", "id": 9963848765, "lat": 52.3281863, "lon": 20.9456163}, {"type": "node", "id": 9972958854, "lat": 52.2316487, "lon": 20.9762883, "tags": {"addr:housenumber": "4D", "addr:street": "Gie\u0142dowa", "amenity": "childcare", "check_date": "2023-06-29", "email": "p.horsztynska@onet.pl", "healthcare": "speech_therapist", "level": "0", "name": "M\u00f3wi Si\u0119", "official_name": "Terapeutyczny Punkt Przedszkolny \"M\u00f3wi Si\u0119\"", "operator": "Fundacja Terapii Mowy", "operator:type": "ngo", "phone": "+48 606677171", "ref:regon": "387864380", "ref:rspo": "276352", "wheelchair": "yes"}}, {"type": "node", "id": 10470139826, "lat": 52.2625509, "lon": 20.9711407, "tags": {"addr:city": "Warszawa", "addr:housenumber": "41", "addr:postcode": "01-755", "addr:street": "Zygmunta Krasi\u0144skiego", "amenity": "childcare", "name": "\u017b\u0142obek Qlka", "opening_hours": "Mo-Fr 07:30-17:30", "website": "http://www.zlobekqlka.pl/"}}, {"type": "node", "id": 10598749294, "lat": 52.245572, "lon": 20.9441997, "tags": {"access": "private", "barrier": "gate"}}, {"type": "node", "id": 10598749319, "lat": 52.2454019, "lon": 20.9443827}, {"type": "node", "id": 10598749320, "lat": 52.2453654, "lon": 20.9443927}, {"type": "node", "id": 10598749321, "lat": 52.24538, "lon": 20.9444906}, {"type": "node", "id": 10598749322, "lat": 52.245076, "lon": 20.94463}, {"type": "node", "id": 10598749326, "lat": 52.2451449, "lon": 20.9452599}, {"type": "node", "id": 10598749327, "lat": 52.2451517, "lon": 20.9453008, "tags": {"access": "private", "barrier": "gate"}}, {"type": "node", "id": 10598749328, "lat": 52.2451713, "lon": 20.9453831}, {"type": "node", "id": 10598749329, "lat": 52.245666, "lon": 20.9447692}, {"type": "node", "id": 10598749330, "lat": 52.245635, "lon": 20.9444399}, {"type": "node", "id": 10598749331, "lat": 52.2455875, "lon": 20.9441954}, {"type": "node", "id": 10598749332, "lat": 52.2455516, "lon": 20.9442053}, {"type": "node", "id": 10598749333, "lat": 52.2455492, "lon": 20.9442282}, {"type": "node", "id": 10598749334, "lat": 52.2455224, "lon": 20.9442709}, {"type": "node", "id": 10598749335, "lat": 52.2454238, "lon": 20.9443166}, {"type": "node", "id": 10598749336, "lat": 52.2454256, "lon": 20.9443673}, {"type": "node", "id": 10598749339, "lat": 52.2455023, "lon": 20.9452211}, {"type": "node", "id": 10598749340, "lat": 52.2457025, "lon": 20.9451744}, {"type": "node", "id": 10598749342, "lat": 52.2456768, "lon": 20.9449089}, {"type": "node", "id": 10598749358, "lat": 52.2451774, "lon": 20.9451965}, {"type": "node", "id": 10598749359, "lat": 52.2451693, "lon": 20.9451519}, {"type": "node", "id": 10598749360, "lat": 52.2451614, "lon": 20.9451075}, {"type": "node", "id": 10598749361, "lat": 52.2451535, "lon": 20.9450634}, {"type": "node", "id": 10598749362, "lat": 52.245146, "lon": 20.9450216}, {"type": "node", "id": 10598749363, "lat": 52.2451381, "lon": 20.9449775}, {"type": "node", "id": 10598749364, "lat": 52.2451307, "lon": 20.9449354}, {"type": "node", "id": 10598749365, "lat": 52.245123, "lon": 20.9448927}, {"type": "node", "id": 10598749366, "lat": 52.2451153, "lon": 20.9448497}, {"type": "node", "id": 10598749367, "lat": 52.245108, "lon": 20.9448082}, {"type": "node", "id": 10598749368, "lat": 52.2451005, "lon": 20.9447663}, {"type": "node", "id": 10598749369, "lat": 52.2450927, "lon": 20.9447229}, {"type": "node", "id": 10598749370, "lat": 52.2450851, "lon": 20.9446809}, {"type": "node", "id": 10598749371, "lat": 52.2450774, "lon": 20.944638}, {"type": "node", "id": 10693245424, "lat": 52.1401724, "lon": 21.0444717}, {"type": "node", "id": 10693245425, "lat": 52.1401715, "lon": 21.0444864}, {"type": "node", "id": 10693245426, "lat": 52.1404825, "lon": 21.0444402}, {"type": "node", "id": 10693245427, "lat": 52.1404818, "lon": 21.0443452}, {"type": "node", "id": 10693245428, "lat": 52.1404908, "lon": 21.044345}, {"type": "node", "id": 10693245429, "lat": 52.1404915, "lon": 21.04444}, {"type": "node", "id": 10697886126, "lat": 52.2342854, "lon": 20.9123285, "tags": {"amenity": "childcare", "name": "\u017b\u0142obek nr 39"}}, {"type": "node", "id": 10757714136, "lat": 52.2344586, "lon": 21.1127004, "tags": {"amenity": "childcare"}}, {"type": "node", "id": 10852938046, "lat": 52.2644892, "lon": 20.9742494, "tags": {"addr:city": "Warszawa", "addr:housenumber": "8A", "addr:postcode": "01-785", "addr:street": "W\u0142adys\u0142awa Broniewskiego", "amenity": "childcare", "capacity": "8", "email": "klub.bambino@gmail.com", "isced:level": "0", "mobile": "+48 510 693 055", "name": "Bambino", "official_name": "Klub Malucha Bambino", "opening_hours": "Mo-Fr 07:00-17:30", "operator": "Gra\u017cyna Kucharska", "source:amenity": "Rejestr \u017b\u0142obk\u00f3w na dzie\u0144 13.01.2023", "website": "http://www.klubbambino.pl/#"}}, {"type": "node", "id": 10937179689, "lat": 52.3108279, "lon": 21.0306906, "tags": {"addr:city": "Warszawa", "addr:housenumber": "186", "addr:street": "Bia\u0142o\u0142\u0119cka", "amenity": "childcare", "capacity": "9", "email": "anulawojna@wp.pl", "isced:level": "0", "name": "Bajlandia", "official_name": "Niepubliczny Klub Dzieci\u0119cy Bajlandia", "opening_hours": "Mo-Fr 7:00-18:00", "operator": "Krystyna Wnuk Trz\u0119sa\u0142a", "operator:type": "private", "phone": "+48 22 675 01 37", "source:amenity": "Rejestr \u017b\u0142obk\u00f3w na dzie\u0144 13.01.2023", "website": "https://przedszkole-bajlandia.pl/"}}, {"type": "node", "id": 11153409931, "lat": 52.1620619, "lon": 20.9947551, "tags": {"addr:housenumber": "4", "addr:street": "Jurajska", "amenity": "childcare", "check_date": "2023-08-29", "name": "Domowa Opieka u Cioci Moniki", "operator:type": "private"}}, {"type": "node", "id": 11198438032, "lat": 52.109334, "lon": 21.0132824, "tags": {"amenity": "childcare", "capacity": "16", "email": "info@zaczarowana-pozytywka.pl", "mobile": "+48 601778504", "name": "Niepubliczny \u017b\u0142obek \"Zacharowana pozytywka\"", "nursery": "yes", "phone": "+48 226428657", "preschool": "yes", "source:amenity": "Rejestr \u017b\u0142obk\u00f3w na dzie\u0144 13.01.2023", "website": "https://zaczarowanapozytywka.pl/"}}, {"type": "node", "id": 11222971136, "lat": 52.1995602, "lon": 20.890144, "tags": {"amenity": "childcare", "check_date": "2024-12-24", "name": "Mali Naukowcy"}}, {"type": "node", "id": 11446276908, "lat": 52.15057, "lon": 21.0312787, "tags": {"addr:housenumber": "17B", "addr:street": "Edwarda Dembowskiego", "amenity": "childcare", "check_date": "2023-12-23", "name": "Weso\u0142e Jag\u00f3dki", "wheelchair": "no"}}, {"type": "node", "id": 12029568618, "lat": 52.2055084, "lon": 21.0167565, "tags": {"addr:housenumber": "27A", "addr:street": "Ludwika Narbutta", "amenity": "childcare", "check_date": "2024-07-02", "name": "Pe\u0142na Miarka", "wheelchair": "no"}}, {"type": "node", "id": 12172658024, "lat": 52.2434466, "lon": 21.0901442, "tags": {"amenity": "childcare", "name": "Ta\u0144cz\u0105ca poziomka", "opening_hours": "Mo-Fr 07:00-17:30"}}, {"type": "node", "id": 12302165072, "lat": 52.1592056, "lon": 21.0742921, "tags": {"addr:housenumber": "8", "addr:street": "Aleja Rzeczypospolitej", "amenity": "childcare", "check_date": "2024-10-31", "name": "Malusi\u0144scy", "opening_hours": "Mo-Fr 07:30-17:30", "wheelchair": "yes"}}, {"type": "node", "id": 12354202178, "lat": 52.2328042, "lon": 21.1030469, "tags": {"amenity": "childcare", "name": "Tygrysek", "operator:type": "private", "phone": "+48226138688"}}, {"type": "node", "id": 12551158695, "lat": 52.1730072, "lon": 21.0111014, "tags": {"addr:housenumber": "15", "addr:street": "Zygmunta Modzelewskiego", "amenity": "childcare", "check_date": "2025-02-02", "name": "Mali Arty\u015bci"}}, {"type": "way", "id": 28905017, "nodes": [9394368481, 9394368426, 9394368447, 317727897, 317727933, 317727936, 9823639726, 317727935, 317727934, 317727899, 9394368491, 9394368430, 9394368453, 317727900, 317727898, 9394368481], "tags": {"addr:city": "Warszawa", "addr:city:simc": "0918123", "addr:housenumber": "232", "addr:postcode": "04-368", "addr:street": "Grochowska", "amenity": "childcare", "building": "kindergarten", "building:levels": "3", "capacity": "73", "email": "zlobek12@zlobki.waw.pl", "isced:level": "0", "name": "\u017b\u0142obek nr 12", "nursery": "yes", "opening_hours": "Mo-Fr 7:00-17:00; Sa,Su off", "operator": "Zesp\u00f3\u0142 \u017b\u0142obk\u00f3w Miasta Sto\u0142ecznego Warszawy", "phone": "+48 723 248 030", "source:addr": "gugik.gov.pl", "source:amenity": "Rejestr \u017b\u0142obk\u00f3w na dzie\u0144 13.01.2023", "website": "https://zlobki.waw.pl/nasze-placowki/zlobki/praga-poludnie/zlobek-nr-12-ul-grochowska-232/"}}, {"type": "way", "id": 30322659, "nodes": [334336330, 334336293, 334336299, 334336332, 334336337, 334336338, 334336331, 334336296, 334336290, 334336327, 334336333, 4388295922, 4388295921, 4388295919, 4388295920, 334336335, 334336330], "tags": {"addr:city": "Warszawa", "addr:city:simc": "0918123", "addr:housenumber": "6", "addr:postcode": "02-377", "addr:street": "Stanis\u0142awa Skar\u017cy\u0144skiego", "amenity": "childcare", "building": "yes", "building:levels": "2", "source:addr": "mapa.um.warszawa.pl"}}, {"type": "way", "id": 214812550, "nodes": [9130229764, 9130229766, 9963848760, 7367752960, 2242847185, 9130229769, 9130229770, 9130229771, 9130229772, 9130229773, 7367752945, 2242847178, 9130229774, 9963848765, 9130229775, 2242847188, 9130229777, 9130229778, 9130229779, 9130229780, 9130229781, 9130229782, 9130229783, 9130229784, 9130229785, 9130229786, 9130229787, 9130229788, 9130229789, 9130229790, 2242847189, 9963848759, 7486747281, 9130229765, 9130229764], "tags": {"addr:city": "Warszawa", "addr:city:simc": "0918123", "addr:housenumber": "18", "addr:postcode": "03-138", "addr:street": "Strumykowa", "amenity": "childcare", "building": "kindergarten", "building:levels": "2", "name": "\u017b\u0142obek nr 36", "source": "www.geoportal.gov.pl", "source:addr": "gugik.gov.pl"}}, {"type": "way", "id": 332580074, "nodes": [3397268627, 3423754531, 6695035622, 3397265660, 3423754162, 3397265662, 3424639359, 3423754546, 3423754551, 3430735382, 3423754565, 3397268660, 3423754572, 3423754571, 3423754570, 3439190641, 3423754560, 3432172182, 3432172181, 3423754558, 3439190640, 3397268627], "tags": {"amenity": "childcare", "barrier": "fence", "capacity": "125", "email": "agkowalczyk@zlobki.waw.pl", "fence_type": "metal", "height": "2", "isced:level": "0", "mobile": "+48 797 990 837", "name": "\u017b\u0142obek nr 37", "nursery": "yes", "opening_hours": "Mo-Fr 07:00-17:30", "operator": "Zesp\u00f3\u0142 \u017b\u0142obk\u00f3w Miasta Sto\u0142ecznego Warszawy", "phone": "+48 22 836 34 81", "source:amenity": "Rejestr \u017b\u0142obk\u00f3w na dzie\u0144 13.01.2023", "website": "https://www.zlobki.waw.pl/zlobki.php?z=37"}}, {"type": "way", "id": 540979024, "nodes": [5232287861, 5232287862, 5232287863, 5232287864, 5232287865, 5232287866, 5232287867, 5232287868, 5232287875, 5232287869, 5232287861], "tags": {"addr:city": "Warszawa", "addr:housenumber": "2A", "addr:postcode": "01-910", "addr:street": "Lwa To\u0142stoja", "amenity": "childcare", "building": "public", "building:levels": "2", "contact:phone": "+48 723 244 577", "name": "\u017b\u0142obek nr 62", "operator": "Miasto Sto\u0142eczne Warszawa"}}, {"type": "way", "id": 744501021, "nodes": [6967848899, 9300339539, 6967848898, 8780837269, 6967781084, 8780837267, 9300375945, 8780837268, 8780837266, 1728450710, 6967848897, 8780837270, 6967848896, 8780837271, 8780837272, 6967848895, 6967848894, 8780837273, 6967848893, 8780837274, 6967848892, 8780837275, 6967848891, 8780837276, 6967848890, 8780837277, 6967848889, 6967848888, 6967848887, 4311822263, 6967848885, 6967848899], "tags": {"addr:city": "Warszawa", "addr:city:simc": "0918123", "addr:housenumber": "1/5", "addr:postcode": "02-843", "addr:street": "6 Sierpnia", "amenity": "childcare", "capacity": "76", "email": "zlobek49@zlobki.waw.pl", "isced:level": "0", "name": "\u017b\u0142obek nr 49", "nursery": "yes", "opening_hours": "Mo-Fr 7:00-17:00", "operator": "Zesp\u00f3\u0142 \u017b\u0142obk\u00f3w Miasta Sto\u0142ecznego Warszawy", "phone": "+48 502 267 869", "source:addr": "mapa.um.warszawa.pl", "source:amenity": "Rejestr \u017b\u0142obk\u00f3w na dzie\u0144 13.01.2023", "website": "https://zlobki.waw.pl/nasze-placowki/zlobki/ursynow/zlobek-nr-49-ul-6-sierpnia-1-5/"}}, {"type": "way", "id": 805568659, "nodes": [7533981919, 7533981911, 7533981918, 7533981915, 7533981910, 7533981912, 7533981919], "tags": {"amenity": "childcare", "barrier": "fence", "name": "\u017b\u0142obek nr 18"}}, {"type": "way", "id": 884547320, "nodes": [8225947608, 8225947607, 10693245428, 10693245427, 10693245426, 10693245429, 8225947606, 8225947605, 8225947604, 8376912924, 8225947601, 8225947600, 8225947599, 8376912929, 8225947598, 10693245424, 10693245425, 8225947597, 8225947608], "tags": {"addr:city": "Warszawa", "addr:city:simc": "0918123", "addr:housenumber": "9", "addr:postcode": "02-795", "addr:street": "Stanis\u0142awa Kazury", "amenity": "childcare", "building": "kindergarten", "capacity": "180", "email": "zlobek69@zlobki.waw.pl", "isced:level": "0", "name": "\u017b\u0142obek nr 69", "nursery": "yes", "opening_hours": "Mo-Fr 07:00-17:30", "operator": "Zesp\u00f3\u0142 \u017b\u0142obk\u00f3w Miasta Sto\u0142ecznego Warszawy", "operator:website": "www.zlobki.waw.pl", "phone": "+48 79 799 08 55", "source:addr": "geoportal.gov.pl", "source:amenity": "Rejestr \u017b\u0142obk\u00f3w na dzie\u0144 13.01.2023", "website": "https://zlobki.waw.pl/nasze-placowki/zlobki/ursynow/zlobek-nr-69-ul-s-kazury-9/", "wheelchair": "yes"}}, {"type": "way", "id": 901797143, "nodes": [8225947581, 8376906311, 8376912925, 8376912924, 8225947604, 8376912917, 8376906316, 8376912957, 8376912933, 8376912958, 8376912959, 8376912960, 8376912961, 8376912962, 8376912965, 8376912966, 8225947581], "tags": {"amenity": "childcare", "name": "\u017b\u0142obek nr 69"}}, {"type": "way", "id": 903145071, "nodes": [8388324096, 8388324095, 8388324094, 8388324093, 8388324092, 8388324091, 8388324090, 8388324089, 8388324088, 8388324087, 8388324086, 8388324085, 8388324084, 8388324083, 8388324098, 8388324097, 8388324096], "tags": {"addr:city": "Warszawa", "addr:city:simc": "0918123", "addr:housenumber": "33", "addr:postcode": "02-496", "addr:street": "Henryka II Pobo\u017cnego", "amenity": "childcare", "building": "kindergarten", "building:levels": "2", "isced:level": "0", "name": "\u017b\u0142obek nr 72", "source": "www.geoportal.gov.pl", "source:addr": "gugik.gov.pl"}}, {"type": "way", "id": 952970348, "nodes": [8820647316, 8820647373, 8820647052, 8820647108, 8820647169, 8820647230, 8820647288, 8820647316], "tags": {"addr:city": "Warszawa", "addr:city:simc": "0918123", "addr:housenumber": "59", "addr:postcode": "02-952", "addr:street": "Wiertnicza", "amenity": "childcare", "building": "yes", "building:levels": "3"}}, {"type": "way", "id": 959762085, "nodes": [8880091507, 8880091506, 8880091502, 8880091500, 8880091501, 4382943233, 8880091507], "tags": {"addr:city": "Warszawa", "addr:housenumber": "15", "addr:postcode": "05-075", "addr:street": "Akacjowa", "addr:suburb": "Weso\u0142a", "amenity": "childcare", "capacity": "54", "email": "zlobek53@zlobki.waw.pl", "isced:level": "0", "name": "\u017b\u0142obek nr 53", "nursery": "yes", "opening_hours": "Mo-Fr 07:00-17:00; Sa,Su off", "operator": "Zesp\u00f3\u0142 \u017b\u0142obk\u00f3w Miasta Sto\u0142ecznego Warszawy", "phone": "+48 507 661 428", "source:amenity": "Rejestr \u017b\u0142obk\u00f3w na dzie\u0144 13.01.2023", "website": "https://zlobki.waw.pl/nasze-placowki/zlobki/wesola/zlobek-nr-53-ul-akacjowa-15/"}}, {"type": "way", "id": 1053665828, "nodes": [9683189616, 9683189615, 9683189614, 9683189613, 9683189612, 9683189611, 9683189610, 9683189609, 9683189608, 9683189607, 9683189606, 9683189605, 9683189604, 9683189603, 9683189602, 9683189601, 9683189600, 9683189599, 9683189598, 9683189616], "tags": {"amenity": "childcare", "mobile": "+48 723 248 063", "name": "\u017b\u0142obek nr 26", "opening_hours": "Mo-Fr 07:00-17:30; Sa,Su off", "website": "https://zlobki.waw.pl/nasze-placowki/zlobki/ursus/zlobek-nr-26-ul-b-wapowskiego-1/"}}, {"type": "way", "id": 1136961588, "nodes": [10598749340, 1723064149, 10598749342, 10598749329, 10598749330, 10598749331, 10598749294, 10598749332, 10598749333, 10598749334, 10598749335, 10598749336, 10598749319, 10598749320, 10598749321, 10598749322, 10598749371, 10598749370, 10598749369, 10598749368, 10598749367, 10598749366, 10598749365, 10598749364, 10598749363, 10598749362, 10598749361, 10598749360, 10598749359, 10598749358, 3900662772, 10598749326, 10598749327, 10598749328, 10598749339, 10598749340], "tags": {"amenity": "childcare", "name": "\u017b\u0142obek nr 66"}}]}