{"version": 0.6, "generator": "Overpass API 0.7.62.5 1bd436f1", "osm3s": {"timestamp_osm_base": "2025-03-24T11:13:59Z", "copyright": "The data included in this document is from www.openstreetmap.org. The data is made available under ODbL."}, "elements": [{"type": "node", "id": 33210562, "lat": 52.2080245, "lon": 20.9629482}, {"type": "node", "id": 33210583, "lat": 52.2515889, "lon": 21.0523678, "tags": {"alt_name": "Dworzec Wschodni;Dworzec Wschodnia PKP", "name": "Warszawa Wschodnia", "name:de": "Warschau Ost", "name:en": "Warsaw East", "name:pl": "Warszawa Wschodnia", "name:ru": "\u0412\u0430\u0440\u0448\u0430\u0432\u0430-\u0412\u043e\u0441\u0442\u043e\u0447\u043d\u0430\u044f", "name:uk": "\u0412\u0430\u0440\u0448\u0430\u0432\u0430-\u0421\u0445\u0456\u0434\u043d\u044f", "network": "PKP Polskie Linie Kolejowe", "official_name": "Dworzec Warszawa Wschodnia im. Romana Dmowskiego", "old_name": "Dworzec Brzeski;Warszawa Dworzec Terespolski", "operator": "PKP Polskie Linie Kolejowe S.A.", "public_transport": "station", "railway": "station", "railway:ref": "Ws", "railway:ref:DB": "XPWW", "train": "yes", "uic_ref": "5100066", "wheelchair": "yes", "wikidata": "Q3270196", "wikipedia": "pl:Warszawa Wschodnia"}}, {"type": "node", "id": 33238753, "lat": 52.3304624, "lon": 20.9271075, "tags": {"amenity": "ferry_terminal", "ferry": "yes", "name": "Nowodwory", "name:pl": "Nowodwory", "public_transport": "station"}}, {"type": "node", "id": 35121250, "lat": 52.2449972, "lon": 21.0011584, "tags": {"colour": "blue", "name": "Ratusz-Arsena\u0142", "network": "Warsaw Metro", "operator": "Metro Warszawskie Sp. z o.o.", "public_transport": "station", "railway": "station", "railway:ref": "Rz", "start_date": "2001-05-11", "station": "subway", "subway": "yes", "wheelchair": "yes", "wikidata": "Q638595", "wikipedia": "pl:Ratusz Arsena\u0142"}}, {"type": "node", "id": 248988944, "lat": 52.2222343, "lon": 21.1022706, "tags": {"amenity": "bus_station", "bus": "yes", "name": "Goc\u0142aw", "name:ru": "\u0413\u043e\u0446\u043b\u0430\u0432", "name:uk": "\u0413\u043e\u0446\u043b\u0430\u0432", "public_transport": "station"}}, {"type": "node", "id": 248994740, "lat": 52.1679396, "lon": 21.0839317, "tags": {"amenity": "bus_station", "bus": "yes", "name": "Wilan\u00f3w", "name:ru": "\u0412\u0438\u043b\u044f\u043d\u0443\u0432", "name:uk": "\u0412\u0456\u043b\u044f\u043d\u0443\u0432", "public_transport": "station"}}, {"type": "node", "id": 267797363, "lat": 52.1802657, "lon": 21.0229675}, {"type": "node", "id": 267797364, "lat": 52.179658, "lon": 21.0226928}, {"type": "node", "id": 267797365, "lat": 52.1792854, "lon": 21.0245661}, {"type": "node", "id": 267797366, "lat": 52.1797608, "lon": 21.0248241}, {"type": "node", "id": 282498946, "lat": 52.2369649, "lon": 21.0411147, "tags": {"amenity": "ferry_terminal", "ata_delete:amenity": "2011-09-01", "ata_delete:operator": "2011-09-01", "ferry": "yes", "name": "Stadion Narodowy", "operator": "Zarz\u0105d Transportu Miejskiego w Warszawie", "public_transport": "station", "wheelchair": "yes"}}, {"type": "node", "id": 291414851, "lat": 52.2716615, "lon": 20.9717196, "tags": {"colour": "blue", "name": "Marymont", "name:pl": "Marymont", "name:ru": "\u041c\u0430\u0440\u044b\u043c\u043e\u043d\u0442", "name:uk": "\u041c\u0430\u0440\u0438\u043c\u043e\u043d\u0442", "network": "Warsaw Metro", "operator": "Metro Warszawskie Sp. z o.o.", "public_transport": "station", "railway": "station", "railway:ref": "Mt", "start_date": "2006-12-29", "station": "subway", "subway": "yes", "wheelchair": "yes", "wikidata": "Q638585", "wikipedia": "pl:Marymont (stacja metra)"}}, {"type": "node", "id": 302913143, "lat": 52.2181249, "lon": 20.9626543, "tags": {"amenity": "bus_station", "bus": "yes", "internet_access": "wlan", "name": "Dworzec Autobusowy Zachodni", "name:be": "\u0412\u0430\u0440\u0448\u0430\u0432\u0430 \u0417\u0430\u0445\u043e\u0434\u043d\u044f\u044f", "name:en": "Zachodni Bus Station", "name:pl": "Dworzec Autobusowy Zachodni", "name:ru": "\u0417\u0430\u043f\u0430\u0434\u043d\u044b\u0439 \u0430\u0432\u0442\u043e\u0432\u043e\u043a\u0437\u0430\u043b \u0412\u0430\u0440\u0448\u0430\u0432\u0430", "name:uk": "\u0417\u0430\u0445\u043e\u0434\u043d\u0456\u0439 \u0410\u0432\u0442\u043e\u0432\u043e\u043a\u0437\u0430\u043b \u0412\u0430\u0440\u0448\u0430\u0432\u0430", "public_transport": "station", "wheelchair": "yes"}}, {"type": "node", "id": 307389114, "lat": 52.2818172, "lon": 20.9493596, "tags": {"colour": "blue", "name": "Stare Bielany", "network": "Warsaw Metro", "operator": "Metro Warszawskie Sp. z o.o.", "public_transport": "station", "railway": "station", "railway:ref": "SB", "start_date": "2008-10-25", "station": "subway", "subway": "yes", "wheelchair": "yes", "wikidata": "Q638981", "wikipedia": "pl:Stare Bielany (stacja metra)"}}, {"type": "node", "id": 307389115, "lat": 52.2863179, "lon": 20.9395965, "tags": {"colour": "blue", "name": "Wawrzyszew", "name:pl": "Wawrzyszew", "name:ru": "\u0412\u0430\u0432\u0436\u0438\u0448\u0435\u0432", "name:uk": "\u0412\u0430\u0432\u0436\u0438\u0448\u0435\u0432", "network": "Warsaw Metro", "operator": "Metro Warszawskie Sp. z o.o.", "public_transport": "station", "railway": "station", "railway:ref": "Ww", "start_date": "2008-10-25", "station": "subway", "subway": "yes", "wheelchair": "yes", "wikidata": "Q638591", "wikipedia": "pl:Wawrzyszew (stacja metra)"}}, {"type": "node", "id": 307389116, "lat": 52.2907599, "lon": 20.9298695, "tags": {"colour": "blue", "name": "M\u0142ociny", "name:pl": "M\u0142ociny", "name:ru": "\u041c\u043b\u043e\u0446\u0438\u043d\u044b", "name:uk": "\u041c\u043b\u043e\u0446\u0456\u043d\u0438", "network": "Warsaw Metro", "operator": "Metro Warszawskie Sp. z o.o.", "public_transport": "station", "railway": "station", "railway:ref": "My", "start_date": "2008-10-25", "station": "subway", "subway": "yes", "wheelchair": "yes", "wikidata": "Q638928", "wikipedia": "pl:M\u0142ociny (stacja metra)"}}, {"type": "node", "id": 307681172, "lat": 52.2362863, "lon": 21.1128523, "tags": {"amenity": "bus_station", "bus": "yes", "name": "Witolin", "name:ru": "\u0412\u0438\u0442\u043e\u043b\u0438\u043d", "name:uk": "\u0412\u0438\u0442\u043e\u043b\u0438\u043d", "operator": "ZTM Warszawa", "public_transport": "station", "wheelchair": "yes"}}, {"type": "node", "id": 322653549, "lat": 52.1815585, "lon": 21.0688861, "tags": {"amenity": "bus_station", "bus": "yes", "name": "Sadyba", "name:ru": "\u0421\u0430\u0434\u0438\u0431\u0430", "name:uk": "\u0421\u0430\u0434\u0438\u0431\u0430", "public_transport": "station", "wikidata": "Q106806501"}}, {"type": "node", "id": 637004421, "lat": 52.206084, "lon": 20.9145689, "tags": {"name": "Warszawa W\u0142ochy", "name:pl": "Warszawa W\u0142ochy", "note": "Przystanek osobowy i posterunek odga\u0142\u0119\u017any", "operator": "PKP Polskie Linie Kolejowe S.A.", "platforms": "2", "public_transport": "station", "railway": "station", "railway:ref": "W\u0142", "source": "Za\u0142\u0105cznik 2.6 https://www.plk-sa.pl/dla-klientow-i-kontrahentow/warunki-udostepniania-infrastruktury-i-regulaminy/regulamin-sieci/regulamin-sieci-20202021/", "train": "yes", "wheelchair": "yes", "wikidata": "Q4399801", "wikipedia": "pl:Warszawa W\u0142ochy (przystanek kolejowy)"}}, {"type": "node", "id": 942626590, "lat": 52.2725117, "lon": 20.924894, "tags": {"amenity": "bus_station", "bus": "yes", "name": "P\u0119tla Chomicz\u00f3wka", "name:ru": "\u041f\u0435\u0442\u043b\u044f \u0425\u043e\u043c\u0438\u0447\u0443\u0432\u043a\u0430", "name:uk": "\u041f\u0435\u0442\u043b\u044f \u0425\u043e\u043c\u0456\u0447\u0443\u0432\u043a\u0430", "operator": "ZTM", "public_transport": "station", "wheelchair": "limited"}}, {"type": "node", "id": 1285567449, "lat": 52.2356458, "lon": 21.0382896, "tags": {"amenity": "ferry_terminal", "ferry": "yes", "name": "Most Poniatowskiego", "name:pl": "Most Poniatowskiego", "operator": "Zarz\u0105d Transportu Miejskiego w Warszawie", "public_transport": "station", "wheelchair": "yes"}}, {"type": "node", "id": 1341665896, "lat": 52.207748, "lon": 20.9642076}, {"type": "node", "id": 1341665897, "lat": 52.2080009, "lon": 20.9644241}, {"type": "node", "id": 1341665899, "lat": 52.2083715, "lon": 20.9632409}, {"type": "node", "id": 1341665904, "lat": 52.20831, "lon": 20.9631955}, {"type": "node", "id": 1341665910, "lat": 52.2083508, "lon": 20.9634493}, {"type": "node", "id": 1341665915, "lat": 52.2076209, "lon": 20.9636649}, {"type": "node", "id": 1347242554, "lat": 52.3334432, "lon": 20.941893}, {"type": "node", "id": 1347242565, "lat": 52.3344944, "lon": 20.9420126}, {"type": "node", "id": 1347242592, "lat": 52.3351873, "lon": 20.9422245}, {"type": "node", "id": 1347242596, "lat": 52.3336833, "lon": 20.9419124}, {"type": "node", "id": 1347242631, "lat": 52.3350157, "lon": 20.942236}, {"type": "node", "id": 1347242639, "lat": 52.3347179, "lon": 20.9420849}, {"type": "node", "id": 1347242643, "lat": 52.3351796, "lon": 20.9423803}, {"type": "node", "id": 1347242645, "lat": 52.3351258, "lon": 20.9422549}, {"type": "node", "id": 1347242672, "lat": 52.3336072, "lon": 20.9421375}, {"type": "node", "id": 1347242689, "lat": 52.3349513, "lon": 20.9423535}, {"type": "node", "id": 1502756219, "lat": 52.1700926, "lon": 20.9954797, "tags": {"amenity": "bus_station", "bus": "yes", "name": "P\u0119tla Bokserska", "name:ru": "\u041f\u0435\u0442\u043b\u044f \u0411\u043e\u043a\u0441\u0435\u0440\u0441\u043a\u0430", "name:uk": "\u041f\u0435\u0442\u043b\u044f \u0411\u043e\u043a\u0441\u0435\u0440\u0441\u044c\u043a\u0430", "public_transport": "station"}}, {"type": "node", "id": 1503106116, "lat": 52.2430182, "lon": 21.0128894, "tags": {"amenity": "bus_station", "bus": "yes", "name": "Pl. Pi\u0142sudskiego", "name:ru": "\u041f\u043b\u043e\u0449\u0430\u0434\u044c \u041f\u0438\u043b\u0441\u0443\u0434\u0446\u043a\u043e\u0433\u043e", "name:uk": "\u041f\u043b\u043e\u0449\u0430 \u041f\u0456\u043b\u0441\u0443\u0434\u0441\u044c\u043a\u043e\u0433\u043e", "public_transport": "station", "wheelchair": "yes"}}, {"type": "node", "id": 1628755572, "lat": 52.2386653, "lon": 21.1326399, "tags": {"name": "Warszawa Goc\u0142awek", "name:pl": "Warszawa Goc\u0142awek", "network": "Koleje Mazowieckie;Szybka Kolej Miejska", "network:short": "KM;SKM", "operator": "PKP Polskie Linie Kolejowe S.A.", "public_transport": "station", "railway": "halt", "train": "yes", "wikidata": "Q2135048", "wikipedia": "pl:Warszawa Goc\u0142awek"}}, {"type": "node", "id": 1700789144, "lat": 52.2910984, "lon": 20.927888, "tags": {"amenity": "bus_station", "bus": "yes", "name": "Metro M\u0142ociny", "name:ru": "\u0421\u0442\u0430\u043d\u0446\u0438\u044f \u041c\u043b\u043e\u0447\u0438\u043d\u044b", "name:uk": "\u0421\u0442\u0430\u043d\u0446\u0456\u044f \u041c\u043b\u043e\u0447\u0438\u043d\u0438", "public_transport": "station", "wheelchair": "yes"}}, {"type": "node", "id": 1703125779, "lat": 52.2605468, "lon": 20.9247928, "tags": {"amenity": "bus_station", "bus": "yes", "name": "Nowe Bemowo", "name:ru": "\u041d\u043e\u0432\u043e\u0435 \u0411\u0435\u0440\u043c\u043e\u0432\u043e", "name:uk": "\u041d\u043e\u0432\u0435 \u0411\u0435\u0440\u043c\u043e\u0432\u043e", "public_transport": "station", "wheelchair": "yes"}}, {"type": "node", "id": 1707479700, "lat": 52.1103103, "lon": 20.9931266, "tags": {"name": "Warszawa Jeziorki", "operator": "PKP Polskie Linie Kolejowe S.A.", "public_transport": "station", "railway": "halt", "train": "yes", "wikidata": "Q1818336", "wikipedia": "pl:Warszawa Jeziorki"}}, {"type": "node", "id": 1718180086, "lat": 52.2274779, "lon": 20.9993834, "tags": {"name": "Warszawa \u015ar\u00f3dmie\u015bcie WKD", "name:pl": "Warszawa \u015ar\u00f3dmie\u015bcie WKD", "name:ru": "\u0412\u0430\u0440\u0448\u0430\u0432\u0430 \u0421\u0440\u0435\u0434\u043c\u0435\u0441\u0442\u044c\u0435 (\u0412\u0430\u0440\u0448\u0430\u0432\u0441\u043a\u0430\u044f \u043f\u0440\u0438\u0433\u043e\u0440\u043e\u0434\u043d\u0430\u044f \u0436\u0435\u043b\u0435\u0437\u043d\u0430\u044f \u0434\u043e\u0440\u043e\u0433\u0430)", "name:uk": "\u0412\u0430\u0440\u0448\u0430\u0432\u0430 \u0421\u0435\u0440\u0435\u0434\u043c\u0456\u0441\u0442\u044f (\u0412\u0430\u0440\u0448\u0430\u0432\u0441\u044c\u043a\u0430 \u043f\u0440\u0438\u043c\u0456\u0441\u044c\u043a\u0430 \u0437\u0430\u043b\u0456\u0437\u043d\u0438\u0446\u044f)", "operator": "Warszawska Kolej Dojazdowa Sp. z o.o.", "public_transport": "station", "railway": "station", "train": "yes", "wheelchair": "limited", "wikidata": "Q2755236", "wikipedia": "pl:Warszawa \u015ar\u00f3dmie\u015bcie WKD"}}, {"type": "node", "id": 1769856476, "lat": 52.2713775, "lon": 20.9678018}, {"type": "node", "id": 1769856497, "lat": 52.2718017, "lon": 20.9690915}, {"type": "node", "id": 1769856500, "lat": 52.2719816, "lon": 20.9690642}, {"type": "node", "id": 1769856502, "lat": 52.2720604, "lon": 20.9690366}, {"type": "node", "id": 1769856505, "lat": 52.2721403, "lon": 20.9689542}, {"type": "node", "id": 1769856507, "lat": 52.2722055, "lon": 20.9688402}, {"type": "node", "id": 1769856508, "lat": 52.2722281, "lon": 20.9686641}, {"type": "node", "id": 1814171418, "lat": 52.1795798, "lon": 21.0231056}, {"type": "node", "id": 1835260515, "lat": 52.1801615, "lon": 21.0229249}, {"type": "node", "id": 1835260523, "lat": 52.1799458, "lon": 21.0228001}, {"type": "node", "id": 1836562367, "lat": 52.3339579, "lon": 20.9422288}, {"type": "node", "id": 1839586014, "lat": 52.2900168, "lon": 20.9768233}, {"type": "node", "id": 1839586016, "lat": 52.2899809, "lon": 20.9768409}, {"type": "node", "id": 1839586020, "lat": 52.2897833, "lon": 20.9758485}, {"type": "node", "id": 1839586072, "lat": 52.2897643, "lon": 20.9757881}, {"type": "node", "id": 1936866228, "lat": 52.20782, "lon": 20.9630197}, {"type": "node", "id": 1958108834, "lat": 52.2768253, "lon": 20.9602351, "tags": {"colour": "blue", "name": "S\u0142odowiec", "name:pl": "S\u0142odowiec", "name:ru": "\u0421\u043b\u043e\u0434\u043e\u0432\u0435\u0446", "name:uk": "\u0421\u043b\u043e\u0434\u043e\u0432\u0435\u0446\u044c", "network": "Warsaw Metro", "platforms": "1", "public_transport": "station", "railway": "station", "start_date": "2008-04-23", "station": "subway", "subway": "yes", "wheelchair": "yes", "wikidata": "Q638940", "wikipedia": "pl:S\u0142odowiec (stacja metra)"}}, {"type": "node", "id": 1973690586, "lat": 52.3000033, "lon": 21.0428532}, {"type": "node", "id": 1973690603, "lat": 52.2999926, "lon": 21.0413208}, {"type": "node", "id": 1973690608, "lat": 52.2999952, "lon": 21.0412726}, {"type": "node", "id": 1973690705, "lat": 52.3004309, "lon": 21.0428941}, {"type": "node", "id": 1973690714, "lat": 52.3004327, "lon": 21.0428127}, {"type": "node", "id": 1973690742, "lat": 52.3004707, "lon": 21.0414261}, {"type": "node", "id": 1973690748, "lat": 52.30049, "lon": 21.0424195}, {"type": "node", "id": 1973690749, "lat": 52.3005196, "lon": 21.0424153}, {"type": "node", "id": 1982884844, "lat": 52.2897032, "lon": 20.9756773}, {"type": "node", "id": 1982884845, "lat": 52.2897228, "lon": 20.97566}, {"type": "node", "id": 1982884847, "lat": 52.2898574, "lon": 20.9760856}, {"type": "node", "id": 2021459341, "lat": 52.2719097, "lon": 20.9675393}, {"type": "node", "id": 2021459344, "lat": 52.2719905, "lon": 20.9676942}, {"type": "node", "id": 2021459347, "lat": 52.2721837, "lon": 20.9683668}, {"type": "node", "id": 2021550211, "lat": 52.2910111, "lon": 21.0003216}, {"type": "node", "id": 2021550221, "lat": 52.2910067, "lon": 21.0007324}, {"type": "node", "id": 2021550234, "lat": 52.2911927, "lon": 21.0011441}, {"type": "node", "id": 2021550240, "lat": 52.2913818, "lon": 21.000046}, {"type": "node", "id": 2021550241, "lat": 52.2914753, "lon": 21.0011386}, {"type": "node", "id": 2021550242, "lat": 52.291486, "lon": 21.0001063}, {"type": "node", "id": 2021550243, "lat": 52.2917708, "lon": 21.0007381}, {"type": "node", "id": 2043558695, "lat": 52.1696272, "lon": 20.9752099, "tags": {"name": "Warszawa Lotnisko Chopina", "name:en": "Warsaw Chopin Airport", "name:ja": "\u30ef\u30eb\u30b7\u30e3\u30ef\u30fb\u30b7\u30e7\u30d1\u30f3\u7a7a\u6e2f", "name:ja-Hira": "\u308f\u308b\u3057\u3083\u308f\u30fb\u3057\u3087\u3074\u3071\u3093\u304f\u3046\u3053\u3046", "name:ja_rm": "Warushawa\u30fbShopan Kuukou", "operator": "PKP Polskie Linie Kolejowe S.A.", "platforms": "1", "public_transport": "station", "railway": "station", "railway:ref": "OkL", "train": "yes", "wikidata": "Q2685989", "wikipedia": "pl:Warszawa Lotnisko Chopina"}}, {"type": "node", "id": 2181100077, "lat": 52.1620483, "lon": 21.2106772, "tags": {"name": "Warszawa Falenica", "name:pl": "Warszawa Falenica", "name:ru": "\u0412\u0430\u0440\u0448\u0430\u0432\u0430 \u0424\u0430\u043b\u0435\u043d\u0438\u0446\u0430", "name:uk": "\u0412\u0430\u0440\u0448\u0430\u0432\u0430 \u0424\u0430\u043b\u0435\u043d\u0456\u0446\u0430", "network": "Koleje Mazowieckie;Szybka Kolej Miejska", "network:short": "KM;SKM", "operator": "PKP Polskie Linie Kolejowe S.A.", "public_transport": "station", "railway": "station", "railway:ref": "Fl", "train": "yes", "wikidata": "Q2769808", "wikipedia": "pl:Warszawa Falenica"}}, {"type": "node", "id": 2341850090, "lat": 52.1914638, "lon": 20.8700172, "tags": {"name": "Warszawa Ursus Nied\u017awiadek", "name:pl": "Warszawa Ursus Nied\u017awiadek", "network": "Koleje Mazowieckie;Szybka Kolej Miejska", "network:short": "KM;SKM", "operator": "PKP Polskie Linie Kolejowe S.A.", "platforms": "1", "public_transport": "station", "railway": "halt", "train": "yes", "wikidata": "Q16614279", "wikipedia": "pl:Warszawa Ursus-Nied\u017awiadek"}}, {"type": "node", "id": 2351113017, "lat": 52.2293788, "lon": 21.0075878, "tags": {"layer": "-1", "name": "Warszawa \u015ar\u00f3dmie\u015bcie", "name:de": "Warschau Stadtmitte", "name:en": "Warsaw City Center", "name:pl": "Warszawa \u015ar\u00f3dmie\u015bcie", "operator": "Polskie Koleje Pa\u0144stwowe S.A.", "platforms": "3", "public_transport": "station", "railway": "halt", "start_date": "1949-06-23", "train": "yes", "wikidata": "Q2320937", "wikipedia": "pl:Warszawa \u015ar\u00f3dmie\u015bcie"}}, {"type": "node", "id": 2490803804, "lat": 52.1285606, "lon": 20.9911229, "tags": {"name": "Warszawa Dawidy", "operator": "PKP Polskie Linie Kolejowe S.A.", "public_transport": "station", "railway": "halt", "train": "yes", "wikidata": "Q2149548", "wikipedia": "pl:Warszawa Dawidy"}}, {"type": "node", "id": 2625395641, "lat": 52.2443313, "lon": 20.9784828}, {"type": "node", "id": 2625395652, "lat": 52.2444852, "lon": 20.9791326}, {"type": "node", "id": 2625395653, "lat": 52.2445147, "lon": 20.9792529}, {"type": "node", "id": 2625395656, "lat": 52.2445362, "lon": 20.9791445}, {"type": "node", "id": 2625395657, "lat": 52.2445441, "lon": 20.9793791}, {"type": "node", "id": 2838809215, "lat": 52.2909735, "lon": 21.000554}, {"type": "node", "id": 2838809219, "lat": 52.2909916, "lon": 21.000388}, {"type": "node", "id": 2838809220, "lat": 52.2909866, "lon": 21.0004716}, {"type": "node", "id": 2838809223, "lat": 52.2909988, "lon": 21.0003545}, {"type": "node", "id": 2838809228, "lat": 52.2910271, "lon": 21.0002982}, {"type": "node", "id": 2838809241, "lat": 52.2910914, "lon": 21.0009784}, {"type": "node", "id": 2838809249, "lat": 52.2912589, "lon": 21.0000695}, {"type": "node", "id": 2838809253, "lat": 52.2912863, "lon": 21.0000533}, {"type": "node", "id": 2838809257, "lat": 52.2914093, "lon": 21.00006}, {"type": "node", "id": 2838809260, "lat": 52.2914335, "lon": 21.0000801}, {"type": "node", "id": 2838809262, "lat": 52.2914667, "lon": 21.0001271}, {"type": "node", "id": 2838809269, "lat": 52.2915469, "lon": 21.0011161}, {"type": "node", "id": 2838809285, "lat": 52.2916455, "lon": 21.0005085}, {"type": "node", "id": 2838809287, "lat": 52.2916586, "lon": 21.0005185}, {"type": "node", "id": 2838813911, "lat": 52.2906113, "lon": 21.0019227}, {"type": "node", "id": 2838813912, "lat": 52.2906305, "lon": 21.0019759}, {"type": "node", "id": 2838823720, "lat": 52.2917421, "lon": 21.0008407}, {"type": "node", "id": 2838823722, "lat": 52.2917776, "lon": 21.0009329}, {"type": "node", "id": 2850584169, "lat": 52.1798412, "lon": 21.0226677}, {"type": "node", "id": 2850584170, "lat": 52.1800207, "lon": 21.0228585}, {"type": "node", "id": 2850587772, "lat": 52.1799305, "lon": 21.0245651}, {"type": "node", "id": 2851416862, "lat": 52.299997, "lon": 21.0414497}, {"type": "node", "id": 2851416864, "lat": 52.3000156, "lon": 21.0414622}, {"type": "node", "id": 2851416866, "lat": 52.3000324, "lon": 21.0414784}, {"type": "node", "id": 2851416869, "lat": 52.3000478, "lon": 21.0414968}, {"type": "node", "id": 2851416872, "lat": 52.3000579, "lon": 21.0415131}, {"type": "node", "id": 2851416875, "lat": 52.3000664, "lon": 21.0415323}, {"type": "node", "id": 2851416878, "lat": 52.3000748, "lon": 21.0415552}, {"type": "node", "id": 2851416880, "lat": 52.3000775, "lon": 21.0412848}, {"type": "node", "id": 2851416883, "lat": 52.3000831, "lon": 21.0415816}, {"type": "node", "id": 2851416884, "lat": 52.3000878, "lon": 21.0416062}, {"type": "node", "id": 2851416885, "lat": 52.3000921, "lon": 21.0416484, "tags": {"barrier": "kerb", "kerb": "lowered", "tactile_paving": "yes"}}, {"type": "node", "id": 2889005397, "lat": 52.3340372, "lon": 20.9858824, "tags": {"name": "Warszawa P\u0142udy", "name:ru": "\u0412\u0430\u0440\u0448\u0430\u0432\u0430 \u041f\u043b\u0443\u0434\u044b", "name:uk": "\u0412\u0430\u0440\u0448\u0430\u0432\u0430 \u041f\u043b\u0443\u0434\u0438", "operator": "PKP Polskie Linie Kolejowe S.A.", "public_transport": "station", "railway": "halt", "train": "yes", "wikidata": "Q7970967", "wikipedia": "pl:Warszawa P\u0142udy"}}, {"type": "node", "id": 2889019486, "lat": 52.3577057, "lon": 20.9723613, "tags": {"name": "Warszawa Choszcz\u00f3wka", "name:ru": "\u0412\u0430\u0440\u0448\u0430\u0432\u0430 \u0425\u043e\u0449\u0443\u0432\u043a\u0430", "name:uk": "\u0412\u0430\u0440\u0448\u0430\u0432\u0430 \u0425\u043e\u0449\u0443\u0432\u043a\u0430", "operator": "PKP Polskie Linie Kolejowe S.A.", "public_transport": "station", "railway": "halt", "train": "yes", "wikidata": "Q2785363", "wikipedia": "pl:Warszawa Choszcz\u00f3wka"}}, {"type": "node", "id": 2920886292, "lat": 52.2896004, "lon": 20.9757579}, {"type": "node", "id": 2920886294, "lat": 52.2897182, "lon": 20.9761202}, {"type": "node", "id": 2920886295, "lat": 52.2898977, "lon": 20.9769459}, {"type": "node", "id": 3006899299, "lat": 52.2541878, "lon": 21.0138499, "tags": {"amenity": "ferry_terminal", "cargo": "bicycle", "check_date": "2022-06-05", "ferry": "yes", "name": "Podzamcze Fontanny", "public_transport": "station", "wheelchair": "no"}}, {"type": "node", "id": 3042068567, "lat": 52.334597, "lon": 20.9420316}, {"type": "node", "id": 3042068589, "lat": 52.33517, "lon": 20.9422492}, {"type": "node", "id": 3073050662, "lat": 52.2717939, "lon": 20.9674946}, {"type": "node", "id": 3073050663, "lat": 52.2718251, "lon": 20.9675026}, {"type": "node", "id": 3193695641, "lat": 52.2722244, "lon": 20.9687536}, {"type": "node", "id": 3220324769, "lat": 52.1797925, "lon": 21.0247447}, {"type": "node", "id": 3220324780, "lat": 52.1799494, "lon": 21.024526}, {"type": "node", "id": 3220324783, "lat": 52.1799614, "lon": 21.024491}, {"type": "node", "id": 3220333394, "lat": 52.1793086, "lon": 21.0244584}, {"type": "node", "id": 3220333398, "lat": 52.179401, "lon": 21.0239967}, {"type": "node", "id": 3220333415, "lat": 52.1795716, "lon": 21.0246981}, {"type": "node", "id": 3241851873, "lat": 52.2057559, "lon": 20.9411445, "tags": {"name": "Warszawa Aleje Jerozolimskie", "operator": "PKP Polskie Linie Kolejowe S.A.", "public_transport": "station", "railway": "station", "railway:ref": "AJ", "train": "yes", "wheelchair": "yes", "wikidata": "Q2682084", "wikipedia": "pl:Warszawa Aleje Jerozolimskie"}}, {"type": "node", "id": 3252093185, "lat": 52.2040448, "lon": 20.9573931, "tags": {"aerialway": "station", "aerialway:station": "top", "public_transport": "station"}}, {"type": "node", "id": 3252093186, "lat": 52.2041688, "lon": 20.9575889, "tags": {"aerialway": "station", "aerialway:station": "top", "public_transport": "station"}}, {"type": "node", "id": 3252093208, "lat": 52.2059627, "lon": 20.9562392, "tags": {"aerialway": "station", "public_transport": "station"}}, {"type": "node", "id": 3252093215, "lat": 52.2061419, "lon": 20.9571573, "tags": {"aerialway": "station", "public_transport": "station"}}, {"type": "node", "id": 3386279560, "lat": 52.2083017, "lon": 20.9635381}, {"type": "node", "id": 3386565629, "lat": 52.1793785, "lon": 21.0240807}, {"type": "node", "id": 3386565657, "lat": 52.1796051, "lon": 21.022979}, {"type": "node", "id": 3390187815, "lat": 52.2540622, "lon": 21.0355034, "tags": {"colour": "#c60c30", "name": "Dworzec Wile\u0144ski", "name:de": "Wilnaer Bahnhof", "name:pl": "Dworzec Wile\u0144ski", "name:ru": "\u0416\u0435\u043b\u0435\u0437\u043d\u043e\u0434\u043e\u0440\u043e\u0436\u043d\u044b\u0439 \u0432\u043e\u043a\u0437\u0430\u043b \u0412\u0438\u043b\u0435\u043d\u044c\u0441\u043a\u0438", "name:uk": "\u0417\u0430\u043b\u0456\u0437\u043d\u0438\u0447\u043d\u0438\u0439 \u0432\u043e\u043a\u0437\u0430\u043b \u0412\u0456\u043b\u0435\u043d\u044c\u0441\u044c\u043a\u0456", "network": "Warsaw Metro", "operator": "Metro Warszawskie Sp. z o.o.", "public_transport": "station", "railway": "station", "railway:ref": "DW", "ref": "C15", "start_date": "2015-03-08", "station": "subway", "subway": "yes", "wheelchair": "yes", "wikidata": "Q5318333", "wikipedia": "pl:Dworzec Wile\u0144ski (stacja metra)"}}, {"type": "node", "id": 3390197100, "lat": 52.2469808, "lon": 21.0428426, "tags": {"colour": "#c60c30", "name": "Stadion Narodowy", "name:pl": "Stadion Narodowy", "name:ru": "\u0421\u0442\u0430\u0434\u0438\u043e\u043d \u041d\u0430\u0440\u043e\u0434\u043e\u0432\u044b", "name:uk": "\u0421\u0442\u0430\u0434\u0456\u043e\u043d \u041d\u0430\u0440\u043e\u0434\u043e\u0432\u0438", "network": "Warsaw Metro", "operator": "Metro Warszawskie Sp. z o.o.", "public_transport": "station", "railway": "station", "railway:ref": "Sn", "ref": "C14", "start_date": "2015-03-08", "station": "subway", "subway": "yes", "wheelchair": "limited", "wikidata": "Q7596321", "wikipedia": "pl:Stadion Narodowy (stacja metra)"}}, {"type": "node", "id": 3390230685, "lat": 52.2399148, "lon": 21.0317878, "tags": {"colour": "#c60c30", "name": "Centrum Nauki Kopernik", "network": "Warsaw Metro", "operator": "Metro Warszawskie Sp. z o.o.", "public_transport": "station", "railway": "station", "railway:ref": "Kk", "ref": "C13", "start_date": "2015-03-08", "station": "subway", "subway": "yes", "wheelchair": "yes", "wikidata": "Q9183919", "wikipedia": "pl:Centrum Nauki Kopernik (stacja metra)"}}, {"type": "node", "id": 3390237898, "lat": 52.236833, "lon": 21.016788, "tags": {"colour": "#c60c30", "name": "Nowy \u015awiat-Uniwersytet", "network": "Warsaw Metro", "operator": "Metro Warszawskie Sp. z o.o.", "public_transport": "station", "railway": "station", "railway:ref": "NS", "ref": "C12", "start_date": "2015-03-08", "station": "subway", "subway": "yes", "wheelchair": "yes", "wikidata": "Q9183918", "wikipedia": "pl:Nowy \u015awiat-Uniwersytet"}}, {"type": "node", "id": 3390266492, "lat": 52.2331101, "lon": 20.9982821, "tags": {"colour": "#c60c30", "name": "Rondo ONZ", "network": "Warsaw Metro", "operator": "Metro Warszawskie Sp. z o.o.", "public_transport": "station", "railway": "station", "railway:ref": "RO", "ref": "C10", "start_date": "2015-03-08", "station": "subway", "subway": "yes", "toilets:wheelchair": "yes", "wheelchair": "yes", "wikidata": "Q7365568", "wikipedia": "pl:Rondo ONZ (stacja metra)"}}, {"type": "node", "id": 3390267294, "lat": 52.2300827, "lon": 20.9828946, "tags": {"colour": "#c60c30", "level": "-2", "name": "Rondo Daszy\u0144skiego", "network": "Warsaw Metro", "operator": "Metro Warszawskie Sp. z o.o.", "public_transport": "station", "railway": "station", "railway:ref": "Do", "ref": "C9", "start_date": "2015-03-08", "station": "subway", "subway": "yes", "wheelchair": "limited", "wikidata": "Q7365567", "wikipedia": "pl:Rondo Daszy\u0144skiego (stacja metra)"}}, {"type": "node", "id": 3390283399, "lat": 52.1320765, "lon": 21.0650711, "tags": {"colour": "#2259a4", "name": "Kabaty", "name:pl": "Kabaty", "name:ru": "\u041a\u0430\u0431\u0430\u0442\u044b", "name:uk": "\u041a\u0430\u0431\u0430\u0442\u0438", "network": "Warsaw Metro", "operator": "Metro Warszawskie Sp. z o.o.", "public_transport": "station", "railway": "station", "railway:ref": "Ky", "ref": "A1", "start_date": "1995-04-07", "station": "subway", "subway": "yes", "wheelchair": "yes", "wikidata": "Q639716", "wikipedia": "pl:Kabaty (stacja metra)"}}, {"type": "node", "id": 3390289961, "lat": 52.1560759, "lon": 21.0347233, "tags": {"colour": "blue", "name": "Stok\u0142osy", "name:pl": "Stok\u0142osy", "name:ru": "\u0421\u0442\u043e\u043a\u043b\u043e\u0441\u044b", "name:uk": "\u0421\u0442\u043e\u043a\u043b\u043e\u0441\u0438", "network": "Warsaw Metro", "operator": "Metro Warszawskie Sp. z o.o.", "public_transport": "station", "railway": "station", "railway:ref": "Sy", "start_date": "1995-04-07", "station": "subway", "subway": "yes", "wheelchair": "yes", "wikidata": "Q638966", "wikipedia": "pl:Stok\u0142osy (stacja metra)"}}, {"type": "node", "id": 3390290324, "lat": 52.1411007, "lon": 21.0564351, "tags": {"colour": "blue", "name": "Natolin", "name:pl": "Natolin", "name:ru": "\u041d\u0430\u0442\u043e\u043b\u0438\u043d", "name:uk": "\u041d\u0430\u0442\u043e\u043b\u0456\u043d", "network": "Warsaw Metro", "operator": "Metro Warszawskie Sp. z o.o.", "public_transport": "station", "railway": "station", "railway:ref": "N", "start_date": "1995-04-07", "station": "subway", "subway": "yes", "wheelchair": "yes", "wikidata": "Q639010", "wikipedia": "pl:Natolin (stacja metra)"}}, {"type": "node", "id": 3390290598, "lat": 52.1493, "lon": 21.0461062, "tags": {"colour": "blue", "name": "Imielin", "name:pl": "Imielin", "name:ru": "\u0418\u043c\u0435\u043b\u0438\u043d", "name:uk": "\u0406\u043c\u0454\u043b\u0456\u043d", "network": "Warsaw Metro", "operator": "Metro Warszawskie Sp. z o.o.", "public_transport": "station", "railway": "station", "railway:ref": "I", "start_date": "1995-04-07", "station": "subway", "subway": "yes", "wheelchair": "yes", "wikidata": "Q638954", "wikipedia": "pl:Imielin (stacja metra)"}}, {"type": "node", "id": 3390304927, "lat": 52.1620456, "lon": 21.0276283, "tags": {"colour": "blue", "name": "Ursyn\u00f3w", "name:pl": "Ursyn\u00f3w", "name:ru": "\u0423\u0440\u0441\u044b\u043d\u0443\u0432", "name:uk": "\u0423\u0440\u0441\u0438\u043d\u0443\u0432", "network": "Warsaw Metro", "operator": "Metro Warszawskie Sp. z o.o.", "public_transport": "station", "railway": "station", "railway:ref": "U", "start_date": "1995-04-07", "station": "subway", "subway": "yes", "wheelchair": "yes", "wikidata": "Q638921", "wikipedia": "pl:Ursyn\u00f3w (stacja metra)"}}, {"type": "node", "id": 3390306374, "lat": 52.1727624, "lon": 21.0262866, "tags": {"colour": "blue", "name": "S\u0142u\u017cew", "name:pl": "S\u0142u\u017cew", "name:ru": "\u0421\u043b\u0443\u0436\u0435\u0432", "name:uk": "\u0421\u043b\u0443\u0436\u0435\u0432", "network": "Warsaw Metro", "operator": "Metro Warszawskie Sp. z o.o.", "public_transport": "station", "railway": "station", "railway:ref": "Sw", "start_date": "1995-04-07", "station": "subway", "subway": "yes", "wheelchair": "yes", "wikidata": "Q2499517", "wikipedia": "pl:S\u0142u\u017cew (stacja metra)"}}, {"type": "node", "id": 3390327068, "lat": 52.1989416, "lon": 21.0121943, "tags": {"colour": "blue", "name": "Rac\u0142awicka", "name:pl": "Rac\u0142awicka", "name:ru": "\u0420\u0430\u0446\u043b\u0430\u0432\u0438\u0446\u043a\u0430", "name:uk": "\u0420\u0430\u0446\u043b\u0430\u0432\u0456\u0446\u044c\u043a\u0430", "network": "Warsaw Metro", "operator": "Metro Warszawskie Sp. z o.o.", "public_transport": "station", "railway": "station", "railway:ref": "Ra", "start_date": "1995-04-07", "station": "subway", "subway": "yes", "wheelchair": "yes", "wikidata": "Q639038", "wikipedia": "pl:Rac\u0142awicka (stacja metra)"}}, {"type": "node", "id": 3390333313, "lat": 52.1899435, "lon": 21.016599, "tags": {"colour": "blue", "name": "Wierzbno", "name:pl": "Wierzbno", "name:ru": "\u0412\u0435\u0436\u0431\u043d\u043e", "name:uk": "\u0412\u0454\u0436\u0431\u043d\u043e", "network": "Warsaw Metro", "operator": "Metro Warszawskie Sp. z o.o.", "public_transport": "station", "railway": "station", "railway:ref": "Wo", "start_date": "1995-04-07", "station": "subway", "subway": "yes", "wheelchair": "yes", "wikidata": "Q568129", "wikipedia": "pl:Wierzbno (stacja metra)"}}, {"type": "node", "id": 3390336021, "lat": 52.1818, "lon": 21.0231369, "tags": {"colour": "blue", "name": "Wilanowska", "name:pl": "Wilanowska", "name:ru": "\u0412\u0438\u043b\u044f\u043d\u043e\u0432\u0441\u043a\u0430", "name:uk": "\u0412\u0456\u043b\u044f\u043d\u043e\u0432\u0441\u044c\u043a\u0430", "network": "Warsaw Metro", "operator": "Metro Warszawskie Sp. z o.o.", "public_transport": "station", "railway": "station", "railway:ref": "Wa", "start_date": "1995-04-07", "station": "subway", "subway": "yes", "wheelchair": "yes", "wikidata": "Q2662377", "wikipedia": "pl:Wilanowska (stacja metra)"}}, {"type": "node", "id": 3390342469, "lat": 52.208529, "lon": 21.0077851, "tags": {"colour": "blue", "name": "Pole Mokotowskie", "network": "Warsaw Metro", "operator": "Metro Warszawskie Sp. z o.o.", "public_transport": "station", "railway": "station", "railway:ref": "PM", "start_date": "1995-04-07", "station": "subway", "subway": "yes", "wheelchair": "no", "wikidata": "Q638899", "wikipedia": "pl:Pole Mokotowskie (stacja metra)"}}, {"type": "node", "id": 3390361095, "lat": 52.2184572, "lon": 21.0153582, "tags": {"colour": "blue", "name": "Politechnika", "network": "Warsaw Metro", "operator": "Metro Warszawskie Sp. z o.o.", "public_transport": "station", "railway": "station", "railway:ref": "Pa", "start_date": "1995-04-07", "station": "subway", "subway": "yes", "wheelchair": "yes", "wikidata": "Q639024", "wikipedia": "pl:Politechnika (stacja metra)"}}, {"type": "node", "id": 3390365405, "lat": 52.2311577, "lon": 21.0100632, "tags": {"colour": "blue", "name": "Centrum", "network": "Warsaw Metro", "operator": "Metro Warszawskie Sp. z o.o.", "public_transport": "station", "railway": "station", "railway:ref": "C", "start_date": "1998-05-26", "station": "subway", "subway": "yes", "wheelchair": "yes", "wikidata": "Q638910", "wikipedia": "pl:Centrum (stacja metra)"}}, {"type": "node", "id": 3390793459, "lat": 52.2447987, "lon": 21.0439637, "tags": {"name": "Warszawa Stadion", "name:de": "Warschau Stadion", "name:pl": "Warszawa Stadion", "network": "SKM Warszawa;Koleje Mazowieckie", "network:short": "SKM;KM", "operator": "PKP Polskie Linie Kolejowe S.A.", "public_transport": "station", "railway": "halt", "train": "yes", "wheelchair": "limited", "wikidata": "Q2579655", "wikipedia": "pl:Warszawa Stadion"}}, {"type": "node", "id": 3390821831, "lat": 52.2201572, "lon": 20.9651719, "tags": {"addr:city": "Warszawa", "addr:housenumber": "142", "addr:postcode": "02-305", "addr:street": "Aleje Jerozolimskie", "alt_name": "Dworzec Zachodni", "check_date": "2024-06-10", "internet_access": "wlan", "internet_access:fee": "no", "internet_access:ssid": "_PKP_WIFI", "name": "Warszawa Zachodnia", "name:de": "Warschau West", "name:ja": "\u30ef\u30eb\u30b7\u30e3\u30ef\u30fb\u30b6\u30db\u30c9\u30cb\u30e3\u99c5", "name:pl": "Warszawa Zachodnia", "name:ru": "\u0412\u0430\u0440\u0448\u0430\u0432\u0430-\u0417\u0430\u043f\u0430\u0434\u043d\u0430\u044f", "name:uk": "\u0412\u0430\u0440\u0448\u0430\u0432\u0430-\u0417\u0430\u0445\u043e\u0434\u043d\u044f", "network": "KM;SKM;PR;\u0141KA;IC", "operator": "PKP Polskie Linie Kolejowe S.A.", "platforms": "8", "public_transport": "station", "railway": "station", "railway:ref": "WZ", "railway:ref:DB": "XPWZ", "train": "yes", "uic_ref": "5100067", "website": "https://www.pkp.pl/pl/dworce/warszawa-zachodnia-informacje-dla-podroznych", "wheelchair": "limited", "wikidata": "Q2694091", "wikipedia": "pl:Warszawa Zachodnia"}}, {"type": "node", "id": 3390854024, "lat": 52.1964007, "lon": 20.8852512, "tags": {"name": "Warszawa Ursus", "name:pl": "Warszawa Ursus", "operator": "PKP Polskie Linie Kolejowe S.A.", "platforms": "2", "public_transport": "station", "railway": "halt", "train": "yes", "wikidata": "Q7970968", "wikipedia": "pl:Warszawa Ursus (przystanek kolejowy)"}}, {"type": "node", "id": 3390898176, "lat": 52.2258253, "lon": 20.9908403, "tags": {"name": "Warszawa Ochota", "name:pl": "Warszawa Ochota", "network": "PKP Polskie Linie Kolejowe", "operator": "PKP Polskie Linie Kolejowe S.A.", "public_transport": "station", "railway": "halt", "railway:station_category": "agglomerative", "start_date": "1963-09-29", "train": "yes", "wikidata": "Q941039", "wikipedia": "pl:Warszawa Ochota (przystanek kolejowy)"}}, {"type": "node", "id": 3390925140, "lat": 52.2143854, "lon": 20.9478636, "tags": {"name": "Warszawa Reduta Ordona", "operator": "Warszawska Kolej Dojazdowa Sp. z o.o.", "public_transport": "station", "railway": "halt", "train": "yes", "wikidata": "Q2170451", "wikipedia": "pl:Warszawa Reduta Ordona"}}, {"type": "node", "id": 3391106287, "lat": 52.2501324, "lon": 21.0533933}, {"type": "node", "id": 3392187634, "lat": 52.2057501, "lon": 20.889622, "tags": {"name": "Warszawa Ursus P\u00f3\u0142nocny", "name:pl": "Warszawa Ursus P\u00f3\u0142nocny", "network": "Koleje Mazowieckie", "network:short": "KM", "operator": "PKP Polskie Linie Kolejowe S.A.", "public_transport": "station", "railway": "halt", "ref": "492101", "train": "yes", "uic_name": "Warszawa Ursus P\u0142n", "uic_ref": "5104164", "wikidata": "Q2199795", "wikipedia": "pl:Warszawa Ursus P\u00f3\u0142nocny"}}, {"type": "node", "id": 3401904483, "lat": 52.2571084, "lon": 21.158478, "tags": {"name": "Warszawa Rembert\u00f3w", "name:de": "Warschau-Rembertau", "name:pl": "Warszawa Rembert\u00f3w", "name:ru": "\u0412\u0430\u0440\u0448\u0430\u0432\u0430 \u0420\u0435\u0431\u043c\u0435\u0440\u0442\u0443\u0432", "name:uk": "\u0412\u0430\u0440\u0448\u0430\u0432\u0430 \u0420\u0435\u043c\u0431\u0435\u0440\u0442\u0443\u0432", "network": "PKP Polskie Linie Kolejowe", "operator": "PKP Polskie Linie Kolejowe S.A.", "public_transport": "station", "railway": "station", "railway:ref": "Rm", "wheelchair": "yes", "wikidata": "Q2594587", "wikipedia": "pl:Warszawa Rembert\u00f3w (stacja kolejowa)"}}, {"type": "node", "id": 3403990011, "lat": 52.2498804, "lon": 21.1064928, "tags": {"name": "Warszawa Olszynka Grochowska", "network": "Koleje Mazowieckie;Szybka Kolej Miejska", "network:short": "KM;SKM", "operator": "PKP Polskie Linie Kolejowe S.A.", "public_transport": "station", "railway": "halt", "train": "yes", "wikidata": "Q1860387", "wikipedia": "pl:Warszawa Olszynka Grochowska"}}, {"type": "node", "id": 3404075447, "lat": 52.212993, "lon": 21.1599414, "tags": {"name": "Warszawa Anin", "network": "Koleje Mazowieckie;Szybka Kolej Miejska", "network:short": "KM;SKM", "operator": "PKP Polskie Linie Kolejowe S.A.", "public_transport": "station", "railway": "halt", "train": "yes", "wheelchair": "yes", "wikidata": "Q2267292", "wikipedia": "pl:Warszawa Anin"}}, {"type": "node", "id": 3404080631, "lat": 52.2039216, "lon": 21.168978, "tags": {"name": "Warszawa Mi\u0119dzylesie", "network": "Koleje Mazowieckie;Szybka Kolej Miejska", "network:short": "KM;SKM", "operator": "PKP Polskie Linie Kolejowe S.A.", "public_transport": "station", "railway": "halt", "train": "yes", "wikidata": "Q952849", "wikipedia": "pl:Warszawa Mi\u0119dzylesie"}}, {"type": "node", "id": 3404083586, "lat": 52.1857228, "lon": 21.1871497, "tags": {"name": "Warszawa Rado\u015b\u0107", "network": "Koleje Mazowieckie;Szybka Kolej Miejska", "network:short": "KM;SKM", "operator": "PKP Polskie Linie Kolejowe S.A.", "public_transport": "station", "railway": "halt", "train": "yes", "wikidata": "Q1841543", "wikipedia": "pl:Warszawa Rado\u015b\u0107"}}, {"type": "node", "id": 3404104730, "lat": 52.1726622, "lon": 21.2002174, "tags": {"name": "Warszawa Miedzeszyn", "network": "Koleje Mazowieckie;Szybka Kolej Miejska", "network:short": "KM;SKM", "operator": "PKP Polskie Linie Kolejowe S.A.", "public_transport": "station", "railway": "halt", "train": "yes", "wikidata": "Q959808", "wikipedia": "pl:Warszawa Miedzeszyn"}}, {"type": "node", "id": 3406336831, "lat": 52.2530125, "lon": 21.0526625}, {"type": "node", "id": 3406336832, "lat": 52.2530203, "lon": 21.052687}, {"type": "node", "id": 3406336833, "lat": 52.2530339, "lon": 21.0527192}, {"type": "node", "id": 3406336835, "lat": 52.2530459, "lon": 21.0527427}, {"type": "node", "id": 3406336837, "lat": 52.2530535, "lon": 21.0527513}, {"type": "node", "id": 3406336838, "lat": 52.2530598, "lon": 21.0527533}, {"type": "node", "id": 3406336840, "lat": 52.2530643, "lon": 21.0527513}, {"type": "node", "id": 3407820475, "lat": 52.2080485, "lon": 20.962969}, {"type": "node", "id": 3414297957, "lat": 52.1967848, "lon": 20.9661819, "tags": {"name": "Warszawa Rakowiec", "operator": "PKP Polskie Linie Kolejowe S.A.", "public_transport": "station", "railway": "halt", "train": "yes", "wikidata": "Q644695", "wikipedia": "pl:Warszawa Rakowiec"}}, {"type": "node", "id": 3414299259, "lat": 52.193416, "lon": 20.9803082, "tags": {"name": "Warszawa \u017bwirki i Wigury", "operator": "PKP Polskie Linie Kolejowe S.A.", "public_transport": "station", "railway": "halt", "train": "yes", "wikidata": "Q7970972", "wikipedia": "pl:Warszawa \u017bwirki i Wigury"}}, {"type": "node", "id": 3414320862, "lat": 52.1807488, "lon": 20.9870352, "tags": {"name": "Warszawa S\u0142u\u017cewiec", "name:ja": "\u30ef\u30eb\u30b7\u30e3\u30ef\u30fb\u30b9\u30a6\u30b8\u30a7\u30d3\u30a8\u30c4", "name:ja_rm": "Warushawa\u30fbSuujebietsu", "operator": "PKP Polskie Linie Kolejowe S.A.", "public_transport": "station", "railway": "halt", "train": "yes", "wikidata": "Q3486931", "wikipedia": "pl:Warszawa S\u0142u\u017cewiec"}}, {"type": "node", "id": 3414445834, "lat": 52.1657359, "lon": 20.9873566, "tags": {"name": "Warszawa Ok\u0119cie", "name:ja": "\u30ef\u30eb\u30b7\u30e3\u30ef\u30fb\u30aa\u30b1\u30f3\u30c4\u30a3\u30a8", "name:ja_rm": "Warushawa\u30fbOkentsie", "name:ru": "\u0412\u0430\u0440\u0448\u0430\u0432\u0430 \u041e\u043a\u0435\u043d\u0447\u0435", "name:uk": "\u0412\u0430\u0440\u0448\u0430\u0432\u0430 \u041e\u043a\u0435\u043d\u0446\u0456", "operator": "PKP Polskie Linie Kolejowe S.A.", "public_transport": "station", "railway": "station", "railway:ref": "Ok", "wheelchair": "yes", "wikidata": "Q640443", "wikipedia": "pl:Warszawa Ok\u0119cie"}}, {"type": "node", "id": 3416823373, "lat": 52.2590955, "lon": 20.9923588, "tags": {"name": "Warszawa Gda\u0144ska", "name:pl": "Warszawa Gda\u0144ska", "name:ru": "\u0412\u0430\u0440\u0448\u0430\u0432\u0430 \u0413\u0434\u0430\u043d\u044c\u0441\u043a\u0430", "name:uk": "\u0412\u0430\u0440\u0448\u0430\u0432\u0430 \u0490\u0434\u0430\u043d\u0441\u044c\u043a\u0430", "operator": "PKP Polskie Linie Kolejowe S.A.", "public_transport": "station", "railway": "station", "railway:ref": "WG", "railway:ref:DB": "XPWG", "train": "yes", "uic_ref": "5100172", "wheelchair": "yes", "wikidata": "Q1842252", "wikipedia": "pl:Warszawa Gda\u0144ska"}}, {"type": "node", "id": 3416840991, "lat": 52.2578685, "lon": 20.9943315, "tags": {"colour": "blue", "name": "Dworzec Gda\u0144ski", "network": "Warsaw Metro", "operator": "Metro Warszawskie Sp. z o.o.", "public_transport": "station", "railway": "station", "railway:ref": "DG", "start_date": "2003-12-20", "station": "subway", "subway": "yes", "wheelchair": "yes", "wikidata": "Q2662347", "wikipedia": "pl:Dworzec Gda\u0144ski (stacja metra)"}}, {"type": "node", "id": 3437788326, "lat": 52.2297939, "lon": 20.9578322, "tags": {"name": "Warszawa Wola", "operator": "PKP Polskie Linie Kolejowe S.A.", "public_transport": "station", "railway": "halt", "train": "yes", "wikidata": "Q7970965", "wikipedia": "pl:Warszawa Wola (przystanek kolejowy)"}}, {"type": "node", "id": 3437806988, "lat": 52.2391698, "lon": 20.9584688, "tags": {"name": "Warszawa M\u0142yn\u00f3w", "operator": "PKP Polskie Linie Kolejowe S.A.", "public_transport": "station", "railway": "halt", "train": "yes", "wheelchair": "no", "wikidata": "Q57718803", "wikipedia": "pl:Warszawa M\u0142yn\u00f3w"}}, {"type": "node", "id": 3437958812, "lat": 52.2635233, "lon": 21.0178245, "tags": {"internet_access": "no", "name": "Warszawa ZOO", "operator": "PKP Polskie Linie Kolejowe S.A.", "public_transport": "station", "railway": "halt", "train": "yes", "wikidata": "Q2371615", "wikipedia": "pl:Warszawa Zoo"}}, {"type": "node", "id": 3438082486, "lat": 52.2775107, "lon": 21.0223526, "tags": {"name": "Warszawa Praga", "network": "PKP Polskie Linie Kolejowe", "old_name": "Praga;Warschau Praga", "operator": "PKP Polskie Linie Kolejowe S.A.", "public_transport": "station", "railway": "station", "railway:ref": "WP", "railway:ref:DB": "XPWP", "wheelchair": "yes", "wikidata": "Q2424590", "wikipedia": "pl:Warszawa Praga (stacja kolejowa)"}}, {"type": "node", "id": 3438881727, "lat": 52.2941826, "lon": 21.0130377, "tags": {"name": "Warszawa Toru\u0144ska", "operator": "PKP Polskie Linie Kolejowe S.A.", "public_transport": "station", "railway": "halt", "train": "yes", "wikidata": "Q2517452", "wikipedia": "pl:Warszawa Toru\u0144ska"}}, {"type": "node", "id": 3439023519, "lat": 52.3142173, "lon": 20.9988691, "tags": {"name": "Warszawa \u017bera\u0144", "operator": "PKP Polskie Linie Kolejowe S.A.", "public_transport": "station", "railway": "halt", "train": "yes", "wikidata": "Q7970975", "wikipedia": "pl:Warszawa \u017bera\u0144"}}, {"type": "node", "id": 3439512895, "lat": 52.2779433, "lon": 21.0802097, "tags": {"name": "Warszawa Zacisze-Wilno", "network": "PKP Polskie Linie Kolejowe", "operator": "PKP Polskie Linie Kolejowe S.A.", "public_transport": "station", "railway": "halt", "train": "yes", "wikidata": "Q9371153", "wikipedia": "pl:Warszawa Zacisze Wilno"}}, {"type": "node", "id": 3457285925, "lat": 52.2232926, "lon": 21.1496497, "tags": {"name": "Warszawa Wawer", "name:pl": "Warszawa Wawer", "name:ru": "\u0412\u0430\u0440\u0448\u0430\u0432\u0430 \u0412\u0430\u0432\u0435\u0440", "name:uk": "\u0412\u0430\u0440\u0448\u0430\u0432\u0430 \u0412\u0430\u0432\u0435\u0440", "network": "Koleje Mazowieckie;Szybka Kolej Miejska", "network:short": "KM;SKM", "operator": "PKP Polskie Linie Kolejowe S.A.", "public_transport": "station", "railway": "station", "railway:ref": "Wr", "train": "yes", "wikidata": "Q2395768", "wikipedia": "pl:Warszawa Wawer (stacja kolejowa)"}}, {"type": "node", "id": 3469566645, "lat": 52.1711257, "lon": 21.1395756, "tags": {"amenity": "ferry_terminal", "ferry": "yes", "name:signed": "no", "public_transport": "station"}}, {"type": "node", "id": 3472100889, "lat": 52.2254065, "lon": 20.9895212, "tags": {"internet_access": "no", "name": "Warszawa Ochota WKD", "network": "Warszawska Kolej Dojazdowa", "operator": "Warszawska Kolej Dojazdowa sp. z o.o.", "public_transport": "station", "railway": "halt", "train": "yes", "wikidata": "Q941039", "wikipedia": "pl:Warszawa Ochota (przystanek kolejowy)"}}, {"type": "node", "id": 3472102372, "lat": 52.2194559, "lon": 20.9655716, "tags": {"name": "Warszawa Zachodnia WKD", "operator": "Warszawska Kolej Dojazdowa sp. z o.o.", "public_transport": "station", "railway": "halt", "wikidata": "Q2328552", "wikipedia": "pl:Warszawa Zachodnia WKD"}}, {"type": "node", "id": 3472122024, "lat": 52.1944814, "lon": 20.9358485, "tags": {"name": "Warszawa Rak\u00f3w", "network": "WKD;ZTM Warszawa", "operator": "Warszawska Kolej Dojazdowa Sp. z o.o.", "public_transport": "station", "railway": "halt", "ref": "4914", "train": "yes", "wikidata": "Q9371142", "wikipedia": "pl:Warszawa Rak\u00f3w"}}, {"type": "node", "id": 3472126593, "lat": 52.1864599, "lon": 20.9243847, "tags": {"name": "Warszawa Salomea", "operator": "Warszawska Kolej Dojazdowa Sp. z o.o.", "public_transport": "station", "railway": "halt", "train": "yes", "wikidata": "Q2711620", "wikipedia": "pl:Warszawa Salomea"}}, {"type": "node", "id": 3542167760, "lat": 52.1705712, "lon": 21.1366362, "tags": {"amenity": "ferry_terminal", "ferry": "yes", "name:signed": "no", "public_transport": "station"}}, {"type": "node", "id": 3615569910, "lat": 52.2692519, "lon": 20.9843885, "tags": {"atm": "yes", "colour": "blue", "name": "Plac Wilsona", "network": "Warsaw Metro", "operator": "Metro Warszawskie Sp. z o.o.", "public_transport": "station", "railway": "station", "railway:ref": "PW", "start_date": "2006-12-29", "station": "subway", "subway": "yes", "wheelchair": "yes", "wikidata": "Q639707", "wikipedia": "pl:Plac Wilsona (stacja metra)"}}, {"type": "node", "id": 4337814886, "lat": 52.2772783, "lon": 21.1704615, "tags": {"name": "Warszawa Mokry \u0141ug", "network": "ZTM Warszawa", "operator": "PKP Polskie Linie Kolejowe S.A.", "public_transport": "station", "railway": "halt", "ref": "2920", "train": "yes", "wikidata": "Q30904945", "wikipedia": "pl:Warszawa Mokry \u0141ug"}}, {"type": "node", "id": 4358027098, "lat": 52.2337064, "lon": 21.0281295, "tags": {"name": "Warszawa Powi\u015ble", "operator": "PKP Polskie Linie Kolejowe S.A.", "public_transport": "station", "railway": "halt", "train": "yes", "uic_ref": "5104154", "wheelchair": "no", "wikidata": "Q3276715", "wikipedia": "pl:Warszawa Powi\u015ble"}}, {"type": "node", "id": 4418052709, "lat": 52.1753812, "lon": 20.9437001, "tags": {"amenity": "bus_station", "bus": "yes", "name": "P+R Aleja Krakowska", "name:ru": "\u041f\u0430\u0440\u043a\u0438\u043d\u0433+\u043e\u0441\u0442\u0430\u043d\u043e\u0432\u043a\u0430 \u0410\u043b\u0435\u044f \u041a\u0440\u0430\u043a\u043e\u0432\u0441\u043a\u0430\u044f", "name:uk": "\u041f\u0430\u0440\u043a\u0456\u043d\u0433+\u0437\u0443\u043f\u0438\u043d\u043a\u0430 \u0410\u043b\u0435\u044f \u041a\u0440\u0430\u043a\u043e\u0432\u0441\u044c\u043a\u0430", "public_transport": "station", "wheelchair": "yes"}}, {"type": "node", "id": 4735832753, "lat": 52.2501639, "lon": 21.0520701}, {"type": "node", "id": 4735832755, "lat": 52.2500867, "lon": 21.0521266}, {"type": "node", "id": 4735832759, "lat": 52.250016, "lon": 21.052181}, {"type": "node", "id": 4735832762, "lat": 52.2499014, "lon": 21.0522689}, {"type": "node", "id": 4735832764, "lat": 52.249966, "lon": 21.0522194}, {"type": "node", "id": 4735832766, "lat": 52.2502311, "lon": 21.0534692}, {"type": "node", "id": 4930657482, "lat": 52.2324546, "lon": 20.9663854, "tags": {"colour": "#c60c30", "name": "P\u0142ocka", "name:pl": "P\u0142ocka", "name:ru": "\u041f\u043b\u043e\u0446\u043a\u0430", "name:uk": "\u041f\u043b\u043e\u0446\u044c\u043a\u0430", "network": "Warsaw Metro", "operator": "Metro Warszawskie Sp. z o.o.", "public_transport": "station", "railway": "station", "railway:ref": "Pa", "ref": "C08", "start_date": "2020-04-04", "station": "subway", "subway": "yes", "wheelchair": "limited", "wikidata": "Q28673348", "wikipedia": "pl:P\u0142ocka (stacja metra)"}}, {"type": "node", "id": 4930657487, "lat": 52.2751021, "lon": 21.0550586, "tags": {"colour": "#c60c30", "name": "Trocka", "name:pl": "Trocka", "name:ru": "\u0422\u0440\u043e\u0446\u043a\u0430", "name:uk": "\u0422\u0440\u043e\u0446\u044c\u043a\u0430", "network": "Metro Warszawskie", "operator": "Metro Warszawskie Sp. z o.o.", "public_transport": "station", "railway": "station", "railway:ref": "Ta", "ref": "C18", "start_date": "2019-09-15", "station": "subway", "subway": "yes", "wheelchair": "yes", "wikidata": "Q24947001", "wikipedia": "pl:Trocka (stacja metra)"}}, {"type": "node", "id": 5117464830, "lat": 52.2350954, "lon": 21.0078988, "tags": {"name": "\u015awi\u0119tokrzyska", "network": "Warsaw Metro", "operator": "Metro Warszawskie Sp. z o.o.", "public_transport": "station", "railway": "station", "railway:ref": "Sa", "ref": "A14;C11", "start_date": "2001-05-11", "station": "subway", "subway": "yes", "wheelchair": "yes", "wikidata": "Q638914", "wikipedia": "pl:\u015awi\u0119tokrzyska (stacja metra)"}}, {"type": "node", "id": 5322601951, "lat": 52.2447078, "lon": 21.0875969, "tags": {"amenity": "bus_station", "bus": "yes", "name": "P\u0119tla Wiatraczna", "name:ru": "\u041f\u0435\u0442\u043b\u044f \u0412\u044f\u0442\u0440\u0430\u0447\u043d\u0430", "name:uk": "\u041f\u0435\u0442\u043b\u044f \u0412\u044f\u0442\u0440\u0430\u0447\u043d\u0430", "public_transport": "station", "wheelchair": "yes"}}, {"type": "node", "id": 5568665109, "lat": 52.3336604, "lon": 20.9421801}, {"type": "node", "id": 5568665110, "lat": 52.3337208, "lon": 20.9421972}, {"type": "node", "id": 5573719318, "lat": 52.2537573, "lon": 21.0188627, "tags": {"amenity": "ferry_terminal", "cargo": "bicycle", "ferry": "yes", "name": "Zoo", "public_transport": "station", "wheelchair": "yes"}}, {"type": "node", "id": 5907821373, "lat": 52.2391822, "lon": 20.9443771, "tags": {"colour": "#c60c30", "name": "Ksi\u0119cia Janusza", "network": "Warsaw Metro", "operator": "Metro Warszawskie Sp. z o.o.", "public_transport": "station", "railway": "station", "railway:ref": "KJ", "ref": "C06", "start_date": "2020-04-04", "station": "subway", "subway": "yes", "wheelchair": "limited", "wikidata": "Q28674112", "wikipedia": "pl:Ksi\u0119cia Janusza (stacja metra)"}}, {"type": "node", "id": 5907821374, "lat": 52.2376798, "lon": 20.9601093, "tags": {"colour": "#c60c30", "name": "M\u0142yn\u00f3w", "name:pl": "M\u0142yn\u00f3w", "name:ru": "\u041c\u043b\u044b\u043d\u0443\u0432", "name:uk": "\u041c\u043b\u0438\u043d\u0443\u0432", "network": "Warsaw Metro", "operator": "Metro Warszawskie Sp. z o.o.", "public_transport": "station", "railway": "station", "railway:ref": "Mw", "ref": "C07", "start_date": "2020-04-04", "station": "subway", "subway": "yes", "wheelchair": "limited", "wikidata": "Q28676558", "wikipedia": "pl:M\u0142yn\u00f3w (stacja metra)"}}, {"type": "node", "id": 6002636000, "lat": 52.2462109, "lon": 20.9590105, "tags": {"name": "Warszawa Ko\u0142o", "operator": "PKP Polskie Linie Kolejowe S.A.", "public_transport": "station", "railway": "halt", "train": "yes", "wikidata": "Q59240633", "wikipedia": "pl:Warszawa Ko\u0142o"}}, {"type": "node", "id": 6053348692, "lat": 52.2634709, "lon": 21.0455232, "tags": {"colour": "#c60c30", "name": "Szwedzka", "name:pl": "Szwedzka", "name:ru": "\u0428\u0432\u0435\u0434\u0441\u043a\u0430", "name:uk": "\u0428\u0432\u0435\u0434\u0441\u044c\u043a\u0430", "network": "Metro Warszawskie", "operator": "Metro Warszawskie Sp. z o.o.", "public_transport": "station", "railway": "station", "railway:ref": "Sz", "ref": "C16", "start_date": "2019-09-15", "station": "subway", "subway": "yes", "wheelchair": "yes", "wikidata": "Q24947468", "wikipedia": "pl:Szwedzka (stacja metra)"}}, {"type": "node", "id": 6464177533, "lat": 52.207779, "lon": 20.9631526}, {"type": "node", "id": 6464177536, "lat": 52.2075919, "lon": 20.9637773}, {"type": "node", "id": 6464177537, "lat": 52.2076327, "lon": 20.9640261}, {"type": "node", "id": 6464193060, "lat": 52.2075903, "lon": 20.963879}, {"type": "node", "id": 6564265270, "lat": 52.2692518, "lon": 21.0513658, "tags": {"colour": "#c60c30", "name": "Targ\u00f3wek Mieszkaniowy", "network": "Metro Warszawskie", "operator": "Metro Warszawskie Sp. z o.o.", "public_transport": "station", "railway": "station", "railway:ref": "Tk", "ref": "C17", "start_date": "2019-09-15", "station": "subway", "subway": "yes", "wheelchair": "yes", "wikidata": "Q25415168", "wikipedia": "pl:Targ\u00f3wek Mieszkaniowy (stacja metra)"}}, {"type": "node", "id": 6783130424, "lat": 52.180016, "lon": 21.0242334}, {"type": "node", "id": 6944998109, "lat": 52.2560751, "lon": 20.9723698, "tags": {"name": "Warszawa Pow\u0105zki", "operator": "PKP Polskie Linie Kolejowe S.A.", "public_transport": "station", "railway": "halt", "train": "yes", "wikidata": "Q65168414", "wikipedia": "pl:Warszawa Pow\u0105zki"}}, {"type": "node", "id": 7362922676, "lat": 52.2391847, "lon": 20.915319, "tags": {"colour": "#c60c30", "name": "Bemowo", "name:pl": "Bemowo", "name:ru": "\u0411\u0435\u043c\u043e\u0432\u043e", "network": "Warsaw Metro", "operator": "Metro Warszawskie Sp. z o.o.", "public_transport": "station", "railway": "station", "railway:ref": "Bm", "ref": "C4", "start_date": "2022-06-30", "station": "subway", "subway": "yes", "wheelchair": "yes", "wikidata": "Q89406786", "wikipedia": "pl:Bemowo (stacja metra)"}}, {"type": "node", "id": 7362922677, "lat": 52.240322, "lon": 20.9300041, "tags": {"colour": "#c60c30", "name": "Ulrych\u00f3w", "name:pl": "Ulrych\u00f3w", "name:ru": "\u0423\u043b\u044c\u0440\u044b\u0445\u0443\u0432", "network": "Warsaw Metro", "operator": "Metro Warszawskie Sp. z o.o.", "public_transport": "station", "railway": "station", "railway:ref": "Uw", "ref": "C05", "start_date": "2022-06-30", "station": "subway", "subway": "yes", "wheelchair": "limited", "wikidata": "Q86723472", "wikipedia": "pl:Ulrych\u00f3w (stacja metra)"}}, {"type": "node", "id": 7477087266, "lat": 52.1801793, "lon": 21.0234293}, {"type": "node", "id": 7477087269, "lat": 52.1800332, "lon": 21.0241446}, {"type": "node", "id": 7515926824, "lat": 52.2250393, "lon": 20.9850425, "tags": {"name": "Warszawa G\u0142\u00f3wna", "name:pl": "Warszawa G\u0142\u00f3wna", "name:ru": "\u0412\u0430\u0440\u0448\u0430\u0432\u0430 \u0413\u043b\u0443\u0432\u043d\u0430", "name:uk": "\u0412\u0430\u0440\u0448\u0430\u0432\u0430 \u0413\u043e\u043b\u043e\u0432\u043d\u0438\u0439", "network": "PKP Polskie Linie Kolejowe", "operator": "PKP Polskie Linie Kolejowe S.A.", "public_transport": "station", "railway": "station", "railway:ref": "WGO", "train": "yes", "wheelchair": "yes", "wikidata": "Q18180267", "wikipedia": "pl:Warszawa G\u0142\u00f3wna"}}, {"type": "node", "id": 8247986330, "lat": 52.3345415, "lon": 20.9420213}, {"type": "node", "id": 8286392818, "lat": 52.2053112, "lon": 20.9422822, "tags": {"name": "Warszawa Aleje Jerozolimskie WKD", "operator": "Warszawska Kolej Dojazdowa Sp. z o.o.", "public_transport": "station", "railway": "halt", "train": "yes", "wheelchair": "yes", "wikidata": "Q2832591", "wikipedia": "nl:Station Warszawa Aleje Jerozolimskie WKD"}}, {"type": "node", "id": 8568754917, "lat": 52.3399232, "lon": 20.9476725}, {"type": "node", "id": 8804881455, "lat": 52.1795508, "lon": 21.0246905}, {"type": "node", "id": 8804881456, "lat": 52.1796976, "lon": 21.0247776}, {"type": "node", "id": 8804881458, "lat": 52.1796038, "lon": 21.0247105, "tags": {"barrier": "kerb", "kerb": "lowered", "tactile_paving": "yes"}}, {"type": "node", "id": 8804927373, "lat": 52.179759, "lon": 21.0226824}, {"type": "node", "id": 8804927374, "lat": 52.1797251, "lon": 21.0226889}, {"type": "node", "id": 8804927380, "lat": 52.1802015, "lon": 21.0232811}, {"type": "node", "id": 8804927382, "lat": 52.1800253, "lon": 21.0241859}, {"type": "node", "id": 8807709120, "lat": 52.2642483, "lon": 21.0517396, "tags": {"name": "Warszawa Targ\u00f3wek", "operator": "PKP Polskie Linie Kolejowe S.A.", "public_transport": "station", "railway": "halt", "train": "yes", "wikidata": "Q30910086", "wikipedia": "pl:Warszawa Targ\u00f3wek"}}, {"type": "node", "id": 8809005110, "lat": 52.2999801, "lon": 21.0414427}, {"type": "node", "id": 8809005636, "lat": 52.3000971, "lon": 21.041753}, {"type": "node", "id": 8809005637, "lat": 52.3000763, "lon": 21.0418408}, {"type": "node", "id": 8809005638, "lat": 52.3001081, "lon": 21.0424981}, {"type": "node", "id": 8809005639, "lat": 52.3001079, "lon": 21.0425194}, {"type": "node", "id": 8809005640, "lat": 52.3001054, "lon": 21.042541}, {"type": "node", "id": 8809005641, "lat": 52.3000992, "lon": 21.0425649}, {"type": "node", "id": 8809005642, "lat": 52.3000925, "lon": 21.0425804}, {"type": "node", "id": 8809005643, "lat": 52.3000816, "lon": 21.0425959}, {"type": "node", "id": 8809005644, "lat": 52.3000716, "lon": 21.0426083}, {"type": "node", "id": 8809005645, "lat": 52.3000589, "lon": 21.0426202}, {"type": "node", "id": 8809005646, "lat": 52.3000432, "lon": 21.0426331}, {"type": "node", "id": 8809005647, "lat": 52.3000256, "lon": 21.0426428}, {"type": "node", "id": 8809005648, "lat": 52.3000102, "lon": 21.0426472}, {"type": "node", "id": 8809005649, "lat": 52.2999959, "lon": 21.0426481}, {"type": "node", "id": 8809005650, "lat": 52.2999296, "lon": 21.0426432}, {"type": "node", "id": 8826199963, "lat": 52.2316205, "lon": 21.0086721}, {"type": "node", "id": 9520477492, "lat": 52.3000049, "lon": 21.0428107}, {"type": "node", "id": 9522935204, "lat": 52.3000905, "lon": 21.0416269}, {"type": "node", "id": 9623836237, "lat": 52.2529087, "lon": 21.0523344}, {"type": "node", "id": 9623836239, "lat": 52.2529307, "lon": 21.0524028}, {"type": "node", "id": 9623836242, "lat": 52.2526039, "lon": 21.051366}, {"type": "node", "id": 9623836244, "lat": 52.2525768, "lon": 21.0512798}, {"type": "node", "id": 9623836247, "lat": 52.2522657, "lon": 21.0502832}, {"type": "node", "id": 9796966787, "lat": 52.2299365, "lon": 21.043464, "tags": {"amenity": "ferry_terminal", "cargo": "bicycle", "check_date": "2022-06-05", "ferry": "yes", "name": "Cypel Czerniakowski", "public_transport": "station"}}, {"type": "node", "id": 9814916146, "lat": 52.2288207, "lon": 21.00316, "tags": {"addr:city": "Warszawa", "addr:housenumber": "54", "addr:postcode": "00-024", "addr:street": "Aleje Jerozolimskie", "alt_name": "Dworzec Centralny", "int_name": "Warszawa Centralna", "internet_access": "wlan", "internet_access:fee": "no", "internet_access:ssid": "_PKP_WIFI", "name": "Warszawa Centralna", "name:be": "\u0412\u0430\u0440\u0448\u0430\u0432\u0430 \u0426\u044d\u043d\u0442\u0440\u0430\u043b\u044c\u043d\u0430\u044f", "name:cs": "Var\u0161ava centr\u00e1ln\u00ed n\u00e1dra\u017e\u00ed", "name:de": "Warschau Hauptbahnhof", "name:en": "Warsaw Central", "name:ja": "\u30ef\u30eb\u30b7\u30e3\u30ef\u4e2d\u592e\u99c5", "name:pl": "Warszawa Centralna", "name:ru": "\u0412\u0430\u0440\u0448\u0430\u0432\u0430 \u0426\u0435\u043d\u0442\u0440\u0430\u043b\u044c\u043d\u0430\u044f", "official_name": "Dworzec Centralny im. Stanis\u0142awa Moniuszki", "operator": "Polskie Koleje Pa\u0144stwowe S.A.", "platforms": "4", "public_transport": "station", "railway": "station", "railway:ref": "WDC", "railway:ref:DB": "XPWC", "railway:station_category": "premium", "start_date": "1975-12-05", "train": "yes", "uic_name": "Warszawa Centralna", "uic_ref": "5100065", "website": "https://www.pkp.pl/pl/dworce/warszawa-centralna-informacje-dla-podroznych", "wheelchair": "yes", "wikidata": "Q693034", "wikipedia": "pl:Warszawa Centralna"}}, {"type": "node", "id": 9830884438, "lat": 52.30006, "lon": 21.0412822}, {"type": "node", "id": 9830884531, "lat": 52.2999502, "lon": 21.0427622}, {"type": "node", "id": 9830884533, "lat": 52.3004992, "lon": 21.0426123}, {"type": "node", "id": 9830884534, "lat": 52.30048, "lon": 21.0427479}, {"type": "node", "id": 9830884535, "lat": 52.300499, "lon": 21.0426353}, {"type": "node", "id": 9830884536, "lat": 52.300498, "lon": 21.0426602}, {"type": "node", "id": 9830884537, "lat": 52.3004957, "lon": 21.0426838}, {"type": "node", "id": 9830884538, "lat": 52.3004917, "lon": 21.0427057}, {"type": "node", "id": 9830884539, "lat": 52.3004863, "lon": 21.0427267}, {"type": "node", "id": 9830884540, "lat": 52.3004688, "lon": 21.0427693}, {"type": "node", "id": 9830884541, "lat": 52.3004566, "lon": 21.0427875}, {"type": "node", "id": 9830884545, "lat": 52.3004413, "lon": 21.0428053}, {"type": "node", "id": 9830884548, "lat": 52.2999337, "lon": 21.0427619}, {"type": "node", "id": 9830884549, "lat": 52.2999272, "lon": 21.042763}, {"type": "node", "id": 9830884550, "lat": 52.3005052, "lon": 21.0424174}, {"type": "node", "id": 9830884559, "lat": 52.3000041, "lon": 21.0428326}, {"type": "node", "id": 9830884565, "lat": 52.3004321, "lon": 21.0428403}, {"type": "node", "id": 9830884576, "lat": 52.3004381, "lon": 21.0413629}, {"type": "node", "id": 9830884577, "lat": 52.3003931, "lon": 21.0413691}, {"type": "node", "id": 9830884578, "lat": 52.3003505, "lon": 21.0413712}, {"type": "node", "id": 9830884579, "lat": 52.3003692, "lon": 21.0413713}, {"type": "node", "id": 9830884604, "lat": 52.3004676, "lon": 21.0413589}, {"type": "node", "id": 9830884607, "lat": 52.3004538, "lon": 21.0413606}, {"type": "node", "id": 9830884622, "lat": 52.3000869, "lon": 21.0417964}, {"type": "node", "id": 9830884673, "lat": 52.3003548, "lon": 21.0428868}, {"type": "node", "id": 9862614088, "lat": 52.1690159, "lon": 20.9736744, "tags": {"amenity": "bus_station", "bus": "yes", "name": "Lotnisko Chopina", "public_transport": "station"}}, {"type": "node", "id": 9988423095, "lat": 52.249849, "lon": 21.0526046, "tags": {"barrier": "kerb"}}, {"type": "node", "id": 9988423096, "lat": 52.2498159, "lon": 21.0523902}, {"type": "node", "id": 9988423097, "lat": 52.249814, "lon": 21.0523967}, {"type": "node", "id": 9988423098, "lat": 52.2498082, "lon": 21.0524478}, {"type": "node", "id": 9988423099, "lat": 52.249809, "lon": 21.0524857}, {"type": "node", "id": 9988423100, "lat": 52.2498144, "lon": 21.052522}, {"type": "node", "id": 9988423101, "lat": 52.2498252, "lon": 21.0525606}, {"type": "node", "id": 9988423102, "lat": 52.2498371, "lon": 21.0525858}, {"type": "node", "id": 9988423103, "lat": 52.2498819, "lon": 21.0526584}, {"type": "node", "id": 9988423104, "lat": 52.2498645, "lon": 21.0526288}, {"type": "node", "id": 9988423105, "lat": 52.2498934, "lon": 21.0526827}, {"type": "node", "id": 9988423106, "lat": 52.249907, "lon": 21.0527153}, {"type": "node", "id": 9988423107, "lat": 52.2499496, "lon": 21.0528399}, {"type": "node", "id": 9988423108, "lat": 52.2500445, "lon": 21.0532103}, {"type": "node", "id": 9988423109, "lat": 52.2500626, "lon": 21.0532628}, {"type": "node", "id": 9988423110, "lat": 52.2501473, "lon": 21.0534107}, {"type": "node", "id": 9988423111, "lat": 52.250172, "lon": 21.0534342}, {"type": "node", "id": 9988423112, "lat": 52.2501864, "lon": 21.0534455}, {"type": "node", "id": 9988433020, "lat": 52.2498205, "lon": 21.0523746}, {"type": "node", "id": 9988433021, "lat": 52.2501029, "lon": 21.053344}, {"type": "node", "id": 9988433022, "lat": 52.25011, "lon": 21.053357}, {"type": "node", "id": 9988433023, "lat": 52.2501157, "lon": 21.0533673}, {"type": "node", "id": 9988433044, "lat": 52.2498262, "lon": 21.0523571}, {"type": "node", "id": 9988433045, "lat": 52.2498347, "lon": 21.0523418}, {"type": "node", "id": 9988433046, "lat": 52.2498543, "lon": 21.0523076}, {"type": "node", "id": 9988433047, "lat": 52.2498731, "lon": 21.0522907}, {"type": "node", "id": 9988433058, "lat": 52.2503719, "lon": 21.0521808}, {"type": "node", "id": 9988433059, "lat": 52.2503809, "lon": 21.0522066}, {"type": "node", "id": 9988433061, "lat": 52.2506226, "lon": 21.0529265}, {"type": "node", "id": 9988433062, "lat": 52.2506459, "lon": 21.0529968}, {"type": "node", "id": 9988433063, "lat": 52.2507492, "lon": 21.0533006}, {"type": "node", "id": 9988433065, "lat": 52.2507625, "lon": 21.0533398}, {"type": "node", "id": 9988433066, "lat": 52.2507724, "lon": 21.0533729}, {"type": "node", "id": 9988433071, "lat": 52.250721, "lon": 21.0536259}, {"type": "node", "id": 9988433086, "lat": 52.2505233, "lon": 21.0536245}, {"type": "node", "id": 9988433087, "lat": 52.2506175, "lon": 21.0536743}, {"type": "node", "id": 9988433088, "lat": 52.2506416, "lon": 21.0536778}, {"type": "node", "id": 9988433089, "lat": 52.2506599, "lon": 21.0536735}, {"type": "node", "id": 9988433090, "lat": 52.2506835, "lon": 21.0536564}, {"type": "node", "id": 9988433091, "lat": 52.2507323, "lon": 21.0536168}, {"type": "node", "id": 9988433092, "lat": 52.2507413, "lon": 21.0535981}, {"type": "node", "id": 9992616550, "lat": 52.2503505, "lon": 21.0521243}, {"type": "node", "id": 9992616554, "lat": 52.2507692, "lon": 21.0535226}, {"type": "node", "id": 9992616555, "lat": 52.2507797, "lon": 21.0534071}, {"type": "node", "id": 9992616558, "lat": 52.2505456, "lon": 21.0526954}, {"type": "node", "id": 9992616559, "lat": 52.2504029, "lon": 21.0522673}, {"type": "node", "id": 9992616563, "lat": 52.2507581, "lon": 21.0535608}, {"type": "node", "id": 9992616564, "lat": 52.2507786, "lon": 21.0534804}, {"type": "node", "id": 9992616565, "lat": 52.2507821, "lon": 21.0534412}, {"type": "node", "id": 9992616573, "lat": 52.2503609, "lon": 21.0521492}, {"type": "node", "id": 9992616574, "lat": 52.2503357, "lon": 21.052096}, {"type": "node", "id": 9992616575, "lat": 52.2503188, "lon": 21.0520771}, {"type": "node", "id": 9992616576, "lat": 52.2502895, "lon": 21.0520547}, {"type": "node", "id": 9992616577, "lat": 52.2502404, "lon": 21.052028}, {"type": "node", "id": 9992616578, "lat": 52.2502115, "lon": 21.0520368}, {"type": "node", "id": 9992616580, "lat": 52.2501234, "lon": 21.0520985}, {"type": "node", "id": 10016776264, "lat": 52.250454, "lon": 21.0536177}, {"type": "node", "id": 10016776265, "lat": 52.2504507, "lon": 21.0535719}, {"type": "node", "id": 10016776267, "lat": 52.2504405, "lon": 21.0535805}, {"type": "node", "id": 10016776268, "lat": 52.2506343, "lon": 21.0529618}, {"type": "node", "id": 10050980192, "lat": 52.2280111, "lon": 21.0492652, "tags": {"amenity": "ferry_terminal", "cargo": "bicycle", "ferry": "yes", "name": "Saska K\u0119pa", "public_transport": "station"}}, {"type": "node", "id": 10058224345, "lat": 52.293585, "lon": 21.0289387, "tags": {"colour": "#c60c30", "name": "Br\u00f3dno", "network": "Metro Warszawskie", "operator": "Metro Warszawskie Sp. z o.o.", "public_transport": "station", "railway": "station", "railway:ref": "Bo", "ref": "C21", "station": "subway", "subway": "yes", "wheelchair": "yes", "wikidata": "Q65169408", "wikipedia": "pl:Br\u00f3dno (stacja metra)"}}, {"type": "node", "id": 10058224348, "lat": 52.2920848, "lon": 21.0486889, "tags": {"colour": "#c60c30", "name": "Kondratowicza", "network": "Metro Warszawskie", "operator": "Metro Warszawskie Sp. z o.o.", "public_transport": "station", "railway": "station", "railway:ref": "Ka", "ref": "C20", "start_date": "2022-09-28", "station": "subway", "subway": "yes", "wheelchair": "yes", "wikidata": "Q65169532", "wikipedia": "pl:Kondratowicza (stacja metra)"}}, {"type": "node", "id": 10058224349, "lat": 52.2837496, "lon": 21.062148, "tags": {"colour": "#c60c30", "name": "Zacisze", "name:pl": "Zacisze", "network": "Metro Warszawskie", "operator": "Metro Warszawskie Sp. z o.o.", "public_transport": "station", "railway": "station", "railway:ref": "Ze", "ref": "C19", "start_date": "2022-09-28", "station": "subway", "subway": "yes", "wheelchair": "yes", "wikidata": "Q65169905", "wikipedia": "pl:Zacisze (stacja metra)"}}, {"type": "node", "id": 10103356860, "lat": 52.2220348, "lon": 20.961427, "tags": {"name": "Warszawa Zachodnia peron 9", "network": "KM;SKM", "note": "W Regulaminie sieci (Za\u0142\u0105cznik 2.6) dany punkt oznaczony jest jako przystanek, natomiast stanowi on integraln\u0105 cz\u0119\u015b\u0107 stacji Warszawa Zachodnia", "old_name": "Warszawa Zachodnia peron 8;Warszawa Wola", "operator": "PKP Polskie Linie Kolejowe S.A.", "public_transport": "station", "railway": "halt", "train": "yes", "uic_ref": "5104228"}}, {"type": "node", "id": 10108758737, "lat": 52.3001065, "lon": 21.0425314}, {"type": "node", "id": 10244811844, "lat": 52.1793483, "lon": 21.0242437}, {"type": "node", "id": 10244811847, "lat": 52.1794147, "lon": 21.0239314}, {"type": "node", "id": 10244811849, "lat": 52.1795832, "lon": 21.0231061}, {"type": "node", "id": 10244811870, "lat": 52.1795024, "lon": 21.0235021}, {"type": "node", "id": 10244811871, "lat": 52.1795478, "lon": 21.0232772}, {"type": "node", "id": 10244811876, "lat": 52.1796538, "lon": 21.0227372}, {"type": "node", "id": 10244811880, "lat": 52.1793675, "lon": 21.024074}, {"type": "node", "id": 10244811881, "lat": 52.1793857, "lon": 21.0239874}, {"type": "node", "id": 10244811884, "lat": 52.1794424, "lon": 21.0237994}, {"type": "node", "id": 10273615981, "lat": 52.3000972, "lon": 21.0417456}, {"type": "node", "id": 10273615982, "lat": 52.300096, "lon": 21.0417595}, {"type": "node", "id": 10273615983, "lat": 52.3000776, "lon": 21.041834}, {"type": "node", "id": 10273615984, "lat": 52.3000762, "lon": 21.0418472}, {"type": "node", "id": 10273616008, "lat": 52.3004893, "lon": 21.0418017}, {"type": "node", "id": 10273617509, "lat": 52.3004937, "lon": 21.0418911}, {"type": "node", "id": 10273617514, "lat": 52.3001018, "lon": 21.0412885}, {"type": "node", "id": 10273617517, "lat": 52.3001496, "lon": 21.0412959}, {"type": "node", "id": 10273617518, "lat": 52.3002877, "lon": 21.0413636}, {"type": "node", "id": 10273617519, "lat": 52.3002903, "lon": 21.0413176}, {"type": "node", "id": 10273617520, "lat": 52.300289, "lon": 21.041341}, {"type": "node", "id": 10273617522, "lat": 52.3003371, "lon": 21.0413704}, {"type": "node", "id": 10573224309, "lat": 52.2558006, "lon": 21.0385505, "tags": {"alt_name": "Dworzec Wile\u0144ski", "name": "Warszawa Wile\u0144ska", "name:ru": "\u0412\u0430\u0440\u0448\u0430\u0432\u0430-\u0412\u0438\u043b\u0435\u043d\u044c\u0441\u043a\u0430", "network": "PKP Polskie Linie Kolejowe", "operator": "Polskie Koleje Pa\u0144stwowe", "public_transport": "station", "railway": "station", "railway:ref": "WW", "railway:station_category": "agglomerative", "start_date": "1863", "train": "yes", "wheelchair": "yes", "wikidata": "Q2772800", "wikipedia": "pl:Warszawa Wile\u0144ska"}}, {"type": "node", "id": 10576387405, "lat": 52.2525265, "lon": 21.0511181}, {"type": "node", "id": 10576387408, "lat": 52.2522596, "lon": 21.0502637}, {"type": "node", "id": 10576387493, "lat": 52.2526097, "lon": 21.0513844}, {"type": "node", "id": 10576387496, "lat": 52.2528588, "lon": 21.0521787}, {"type": "node", "id": 10576387497, "lat": 52.2529363, "lon": 21.0524194}, {"type": "node", "id": 10592288390, "lat": 52.291552, "lon": 21.0002727}, {"type": "node", "id": 10592288391, "lat": 52.2915849, "lon": 21.0003559}, {"type": "node", "id": 10592288392, "lat": 52.291562, "lon": 21.0002628}, {"type": "node", "id": 10592288393, "lat": 52.2915944, "lon": 21.0003465}, {"type": "node", "id": 10592288399, "lat": 52.2914504, "lon": 21.0001034}, {"type": "node", "id": 10592288400, "lat": 52.2913493, "lon": 21.0000397}, {"type": "node", "id": 10592288401, "lat": 52.2913171, "lon": 21.000042}, {"type": "node", "id": 10592288402, "lat": 52.2912273, "lon": 21.0000949}, {"type": "node", "id": 10592288403, "lat": 52.2912036, "lon": 21.0001188}, {"type": "node", "id": 10592298620, "lat": 52.291745, "lon": 21.0008569}, {"type": "node", "id": 10592298621, "lat": 52.2917513, "lon": 21.0008731}, {"type": "node", "id": 10592298631, "lat": 52.291689, "lon": 21.0005262}, {"type": "node", "id": 10592298632, "lat": 52.291673, "lon": 21.0005226}, {"type": "node", "id": 10592298635, "lat": 52.2917552, "lon": 21.000755}, {"type": "node", "id": 10592298636, "lat": 52.2917474, "lon": 21.000769}, {"type": "node", "id": 10592298637, "lat": 52.2917424, "lon": 21.000787}, {"type": "node", "id": 10592298638, "lat": 52.2917402, "lon": 21.000811}, {"type": "node", "id": 10592298639, "lat": 52.2916494, "lon": 21.0010705}, {"type": "node", "id": 10592298679, "lat": 52.2915368, "lon": 21.0010287}, {"type": "node", "id": 10592298680, "lat": 52.2913433, "lon": 21.0011756}, {"type": "node", "id": 10592298681, "lat": 52.2913166, "lon": 21.0011816}, {"type": "node", "id": 10592298682, "lat": 52.2912846, "lon": 21.0011843}, {"type": "node", "id": 10592298686, "lat": 52.2915412, "lon": 21.0010661}, {"type": "node", "id": 10592298687, "lat": 52.2909935, "lon": 21.0005458}, {"type": "node", "id": 10592298688, "lat": 52.2909884, "lon": 21.0005109}, {"type": "node", "id": 10592298689, "lat": 52.2909881, "lon": 21.0004313}, {"type": "node", "id": 10592298690, "lat": 52.291048, "lon": 21.0002756}, {"type": "node", "id": 10592298702, "lat": 52.2912196, "lon": 21.0011608}, {"type": "node", "id": 10592298703, "lat": 52.2911238, "lon": 21.0010563}, {"type": "node", "id": 10592298704, "lat": 52.2910932, "lon": 21.0009494}, {"type": "node", "id": 10592298705, "lat": 52.2910162, "lon": 21.0006973}, {"type": "node", "id": 10592298706, "lat": 52.2909812, "lon": 21.0005945}, {"type": "node", "id": 10592298707, "lat": 52.2909893, "lon": 21.0006263}, {"type": "node", "id": 10592298708, "lat": 52.2910124, "lon": 21.0007116}, {"type": "node", "id": 10592298713, "lat": 52.2910021, "lon": 21.0007211}, {"type": "node", "id": 10592298715, "lat": 52.2911362, "lon": 21.0010787}, {"type": "node", "id": 10592298716, "lat": 52.2911553, "lon": 21.0011066}, {"type": "node", "id": 10592298717, "lat": 52.2911736, "lon": 21.0011276}, {"type": "node", "id": 10592298719, "lat": 52.2912412, "lon": 21.0011716}, {"type": "node", "id": 10592298720, "lat": 52.2912615, "lon": 21.0011801}, {"type": "node", "id": 10592298730, "lat": 52.2914313, "lon": 21.0011503}, {"type": "node", "id": 10592298904, "lat": 52.2916372, "lon": 21.0010546}, {"type": "node", "id": 10592298907, "lat": 52.2916215, "lon": 21.0010407}, {"type": "node", "id": 10592298908, "lat": 52.2916022, "lon": 21.0010307}, {"type": "node", "id": 10592298909, "lat": 52.2915803, "lon": 21.0010254}, {"type": "node", "id": 10592298910, "lat": 52.2915593, "lon": 21.0010241}, {"type": "node", "id": 10599839190, "lat": 52.2999416, "lon": 21.0427615}, {"type": "node", "id": 10601710223, "lat": 52.244551, "lon": 20.9794075}, {"type": "node", "id": 10601710288, "lat": 52.244333, "lon": 20.9784965}, {"type": "node", "id": 10601710289, "lat": 52.2443303, "lon": 20.9784629}, {"type": "node", "id": 10601710290, "lat": 52.2442889, "lon": 20.9783003}, {"type": "node", "id": 10601710291, "lat": 52.2442625, "lon": 20.9783328}, {"type": "node", "id": 10601710292, "lat": 52.2442454, "lon": 20.9783582}, {"type": "node", "id": 10601710293, "lat": 52.2442301, "lon": 20.9783857}, {"type": "node", "id": 10601710294, "lat": 52.2442174, "lon": 20.9784152}, {"type": "node", "id": 10601710295, "lat": 52.2442077, "lon": 20.9784477}, {"type": "node", "id": 10601710296, "lat": 52.244199, "lon": 20.9784909}, {"type": "node", "id": 10601710297, "lat": 52.244194, "lon": 20.978531}, {"type": "node", "id": 10601710298, "lat": 52.2441924, "lon": 20.9785694}, {"type": "node", "id": 10601710299, "lat": 52.2441932, "lon": 20.9786052}, {"type": "node", "id": 10601710300, "lat": 52.2441979, "lon": 20.9786389}, {"type": "node", "id": 10601710301, "lat": 52.2443909, "lon": 20.9794523}, {"type": "node", "id": 10601710302, "lat": 52.2444009, "lon": 20.9794854}, {"type": "node", "id": 10601710303, "lat": 52.2444112, "lon": 20.9795149}, {"type": "node", "id": 10601710304, "lat": 52.2444234, "lon": 20.9795408}, {"type": "node", "id": 10601710305, "lat": 52.2444364, "lon": 20.9795631}, {"type": "node", "id": 10601710306, "lat": 52.2444548, "lon": 20.979586}, {"type": "node", "id": 10601710307, "lat": 52.2444719, "lon": 20.9796038}, {"type": "node", "id": 10601710308, "lat": 52.2444896, "lon": 20.979618}, {"type": "node", "id": 10601710309, "lat": 52.2445099, "lon": 20.9796272}, {"type": "node", "id": 10601710310, "lat": 52.2445338, "lon": 20.9796333}, {"type": "node", "id": 10601710311, "lat": 52.2445578, "lon": 20.9796368}, {"type": "node", "id": 10601710312, "lat": 52.2445768, "lon": 20.9796338}, {"type": "node", "id": 10601710313, "lat": 52.2445957, "lon": 20.9796282}, {"type": "node", "id": 10601710314, "lat": 52.24461, "lon": 20.9796256}, {"type": "node", "id": 10601710315, "lat": 52.2446206, "lon": 20.9796272}, {"type": "node", "id": 10601710316, "lat": 52.2446293, "lon": 20.9796348}, {"type": "node", "id": 10601710317, "lat": 52.2445942, "lon": 20.9794971}, {"type": "node", "id": 10601710318, "lat": 52.244583, "lon": 20.9794889}, {"type": "node", "id": 10601710319, "lat": 52.2445727, "lon": 20.9794747}, {"type": "node", "id": 10601710320, "lat": 52.244564, "lon": 20.9794579}, {"type": "node", "id": 10601710321, "lat": 52.2445581, "lon": 20.9794366}, {"type": "node", "id": 10601710322, "lat": 52.2445663, "lon": 20.979267}, {"type": "node", "id": 10601710325, "lat": 52.2444064, "lon": 20.979501}, {"type": "node", "id": 10601710333, "lat": 52.2442912, "lon": 20.9790321}, {"type": "node", "id": 10670215783, "lat": 52.333684, "lon": 20.9421868}, {"type": "node", "id": 10729513153, "lat": 52.2907599, "lon": 21.0018509}, {"type": "node", "id": 10729513154, "lat": 52.2907408, "lon": 21.0017976}, {"type": "node", "id": 10729513156, "lat": 52.2906407, "lon": 21.0018943}, {"type": "node", "id": 11081761654, "lat": 52.2555011, "lon": 21.0842391, "tags": {"name": "Warszawa Groch\u00f3w", "network": "Koleje Mazowieckie;Szybka Kolej Miejska", "network:short": "KM;SKM", "operator": "PKP Polskie Linie Kolejowe S.A.", "public_transport": "station", "railway": "halt", "start_date": "2023-12-10", "train": "yes", "was:proposed:name": "Warszawa Wiatraczna", "wikidata": "Q97370707", "wikipedia": "pl:Warszawa Groch\u00f3w (przystanek kolejowy)"}}, {"type": "node", "id": 11207997506, "lat": 52.2895919, "lon": 20.975514}, {"type": "node", "id": 11207997507, "lat": 52.2895726, "lon": 20.9754793}, {"type": "node", "id": 11207997508, "lat": 52.2895581, "lon": 20.9754457}, {"type": "node", "id": 11207997517, "lat": 52.2896302, "lon": 20.9755803}, {"type": "node", "id": 11207997518, "lat": 52.2896841, "lon": 20.9756939}, {"type": "node", "id": 11207997528, "lat": 52.2899203, "lon": 20.976321}, {"type": "node", "id": 11207997529, "lat": 52.2899341, "lon": 20.9763822}, {"type": "node", "id": 11218820473, "lat": 52.2999245, "lon": 21.0427637}, {"type": "node", "id": 11218820474, "lat": 52.2999869, "lon": 21.0413178}, {"type": "node", "id": 11329864689, "lat": 52.179914, "lon": 21.0227659}, {"type": "node", "id": 11329864691, "lat": 52.1797636, "lon": 21.0247976}, {"type": "node", "id": 11329864692, "lat": 52.1797611, "lon": 21.0248103}, {"type": "node", "id": 11329864693, "lat": 52.179692, "lon": 21.0226921}, {"type": "node", "id": 11329864694, "lat": 52.1796214, "lon": 21.024719}, {"type": "node", "id": 11512561107, "lat": 52.3402883, "lon": 20.9474088}, {"type": "node", "id": 11512561134, "lat": 52.339714, "lon": 20.946512}, {"type": "node", "id": 11512561135, "lat": 52.3396947, "lon": 20.9465348}, {"type": "node", "id": 11512561136, "lat": 52.3396766, "lon": 20.9465657}, {"type": "node", "id": 11512561137, "lat": 52.3396562, "lon": 20.9466139}, {"type": "node", "id": 11512561138, "lat": 52.3396419, "lon": 20.9466651}, {"type": "node", "id": 11512561139, "lat": 52.3396332, "lon": 20.9467127}, {"type": "node", "id": 11512561140, "lat": 52.3396279, "lon": 20.9467683}, {"type": "node", "id": 11512561141, "lat": 52.3396298, "lon": 20.9468269}, {"type": "node", "id": 11512561142, "lat": 52.3396377, "lon": 20.9468887}, {"type": "node", "id": 11512561143, "lat": 52.3396585, "lon": 20.9469554}, {"type": "node", "id": 11512561144, "lat": 52.3401373, "lon": 20.948256}, {"type": "node", "id": 11512561145, "lat": 52.3402253, "lon": 20.9481708}, {"type": "node", "id": 11512561146, "lat": 52.3402173, "lon": 20.9481313}, {"type": "node", "id": 11512561147, "lat": 52.3402158, "lon": 20.9480979}, {"type": "node", "id": 11512561148, "lat": 52.3402181, "lon": 20.9480553}, {"type": "node", "id": 11512561149, "lat": 52.3402256, "lon": 20.9480152}, {"type": "node", "id": 11512561150, "lat": 52.3402996, "lon": 20.9476903}, {"type": "node", "id": 11512561151, "lat": 52.3403071, "lon": 20.9476452}, {"type": "node", "id": 11512561152, "lat": 52.3403105, "lon": 20.9476082}, {"type": "node", "id": 11512561153, "lat": 52.3403113, "lon": 20.9475637}, {"type": "node", "id": 11512561154, "lat": 52.3403086, "lon": 20.9475131}, {"type": "node", "id": 11512561155, "lat": 52.3403022, "lon": 20.9474742}, {"type": "node", "id": 11512561156, "lat": 52.3402958, "lon": 20.9474377}, {"type": "node", "id": 11512561157, "lat": 52.3402769, "lon": 20.9473716}, {"type": "node", "id": 11512561158, "lat": 52.3399936, "lon": 20.9466003}, {"type": "node", "id": 11512561159, "lat": 52.3399751, "lon": 20.9465626}, {"type": "node", "id": 11512561160, "lat": 52.3399555, "lon": 20.9465336}, {"type": "node", "id": 11512561161, "lat": 52.3399302, "lon": 20.9465027}, {"type": "node", "id": 11512561162, "lat": 52.3399026, "lon": 20.9464842}, {"type": "node", "id": 11512561163, "lat": 52.339877, "lon": 20.94647}, {"type": "node", "id": 11512561164, "lat": 52.3398506, "lon": 20.9464613}, {"type": "node", "id": 11512561165, "lat": 52.3398238, "lon": 20.9464588}, {"type": "node", "id": 11512561166, "lat": 52.3398007, "lon": 20.9464613}, {"type": "node", "id": 11512561167, "lat": 52.3397706, "lon": 20.9464749}, {"type": "node", "id": 11512561168, "lat": 52.3397411, "lon": 20.9464916}, {"type": "node", "id": 11663745455, "lat": 52.2899355, "lon": 20.9771231}, {"type": "node", "id": 11663745456, "lat": 52.2899477, "lon": 20.9771539}, {"type": "node", "id": 11663745458, "lat": 52.2899324, "lon": 20.9771158}, {"type": "node", "id": 11893714065, "lat": 52.2898149, "lon": 20.9764965}, {"type": "node", "id": 11893714066, "lat": 52.2897882, "lon": 20.9763778}, {"type": "node", "id": 11893714067, "lat": 52.2897573, "lon": 20.9762567}, {"type": "node", "id": 11893714068, "lat": 52.2896761, "lon": 20.9759894}, {"type": "node", "id": 11893876674, "lat": 52.28989, "lon": 20.9762007}, {"type": "node", "id": 11893876676, "lat": 52.2899461, "lon": 20.9764397}, {"type": "node", "id": 11893876677, "lat": 52.289976, "lon": 20.976843}, {"type": "node", "id": 11893877031, "lat": 52.2900028, "lon": 20.9770978}, {"type": "node", "id": 11893877032, "lat": 52.2895073, "lon": 20.9754771}, {"type": "node", "id": 11893877033, "lat": 52.2895549, "lon": 20.9754368}, {"type": "node", "id": 11893877034, "lat": 52.2896722, "lon": 20.9756588}, {"type": "node", "id": 11893877035, "lat": 52.2899912, "lon": 20.9769373}, {"type": "node", "id": 11893877036, "lat": 52.2899941, "lon": 20.976966}, {"type": "node", "id": 11893877037, "lat": 52.2899967, "lon": 20.9770036}, {"type": "node", "id": 11893877038, "lat": 52.2899969, "lon": 20.9770403}, {"type": "node", "id": 11893877039, "lat": 52.2899993, "lon": 20.9770703}, {"type": "node", "id": 11893877068, "lat": 52.2899959, "lon": 20.9768335}, {"type": "node", "id": 11898115869, "lat": 52.3112929, "lon": 20.9960877, "tags": {"amenity": "ferry_terminal", "ferry": "yes", "name": "Przystanek promowy Zefir", "public_transport": "station"}}, {"type": "node", "id": 11947535136, "lat": 52.2523363, "lon": 21.0501993}, {"type": "node", "id": 11947535137, "lat": 52.2531351, "lon": 21.0526886}, {"type": "node", "id": 11947535138, "lat": 52.2531268, "lon": 21.0526812}, {"type": "node", "id": 11947535139, "lat": 52.2531062, "lon": 21.0526504}, {"type": "node", "id": 11947535140, "lat": 52.2530078, "lon": 21.052341}, {"type": "node", "id": 11947535141, "lat": 52.2531075, "lon": 21.0522569}, {"type": "node", "id": 11947535142, "lat": 52.2527536, "lon": 21.0511308}, {"type": "node", "id": 11947535143, "lat": 52.2526548, "lon": 21.0512142}, {"type": "node", "id": 11947535145, "lat": 52.2531153, "lon": 21.0526676}, {"type": "node", "id": 12138462458, "lat": 52.2317449, "lon": 21.009246}, {"type": "node", "id": 12282503312, "lat": 52.2306399, "lon": 21.0092114}, {"type": "node", "id": 12282503313, "lat": 52.2307852, "lon": 21.0098909}, {"type": "node", "id": 12282503315, "lat": 52.2316155, "lon": 21.0086487}, {"type": "node", "id": 12406920115, "lat": 52.2316665, "lon": 21.0092931}, {"type": "node", "id": 12488166869, "lat": 52.2316191, "lon": 21.0093205}, {"type": "node", "id": 12488166880, "lat": 52.2316348, "lon": 21.0093882}, {"type": "node", "id": 12613433534, "lat": 52.2530329, "lon": 21.0520196}, {"type": "way", "id": 24635942, "nodes": [267797363, 1835260515, 2850584170, 1835260523, 11329864689, 2850584169, 8804927373, 8804927374, 11329864693, 267797364, 10244811876, 3386565657, 1814171418, 10244811849, 10244811871, 10244811870, 10244811884, 10244811847, 3220333398, 10244811881, 10244811880, 3386565629, 10244811844, 3220333394, 267797365, 8804881455, 3220333415, 8804881458, 11329864694, 8804881456, 267797366, 11329864692, 11329864691, 3220324769, 2850587772, 3220324780, 3220324783, 6783130424, 8804927382, 7477087269, 7477087266, 8804927380, 267797363], "tags": {"amenity": "bus_station", "bus": "yes", "check_date": "2022-08-06", "name": "Metro Wilanowska", "network": "Zarz\u0105d Transportu Miejskiego w Warszawie", "network:short": "ZTM Warszawa", "network:wikidata": "Q8066998", "old_name": "Dworzec Po\u0142udniowy", "public_transport": "station", "wheelchair": "yes", "wikidata": "Q9371140", "wikipedia": "pl:Warszawa Po\u0142udniowa"}}, {"type": "way", "id": 119390001, "nodes": [1341665899, 1341665904, 3407820475, 33210562, 1936866228, 6464177533, 1341665915, 6464177536, 6464193060, 6464177537, 1341665896, 1341665897, 3386279560, 1341665910, 1341665899], "tags": {"amenity": "bus_station", "bus": "yes", "public_transport": "station", "wheelchair": "yes"}}, {"type": "way", "id": 120074450, "nodes": [1347242592, 1347242643, 1347242689, 1836562367, 5568665110, 10670215783, 5568665109, 1347242672, 1347242554, 1347242596, 1347242565, 8247986330, 3042068567, 1347242639, 1347242631, 1347242645, 3042068589, 1347242592], "tags": {"area": "yes", "name": "Nowodwory", "public_transport": "station", "wikidata": "Q106767024"}}, {"type": "way", "id": 191561069, "nodes": [1769856476, 3073050662, 3073050663, 2021459341, 2021459344, 2021459347, 1769856508, 3193695641, 1769856507, 1769856505, 1769856502, 1769856500, 1769856497, 1769856476], "tags": {"amenity": "bus_station", "bus": "yes", "name": "Metro Marymont", "public_transport": "station", "wheelchair": "yes"}}, {"type": "way", "id": 191570763, "nodes": [2021550242, 10592288390, 10592288392, 10592288393, 10592288391, 2838809285, 2838809287, 10592298632, 10592298631, 2021550243, 10592298635, 10592298636, 10592298637, 10592298638, 2838823720, 10592298620, 10592298621, 2838823722, 10592298639, 10592298904, 10592298907, 10592298908, 10592298909, 10592298910, 10592298679, 10592298686, 2838809269, 2021550241, 10592298730, 10592298680, 10592298681, 10592298682, 10592298720, 10592298719, 10592298702, 2021550234, 10592298717, 10592298716, 10592298715, 10592298703, 2838809241, 10592298704, 2021550221, 10592298713, 10592298708, 10592298705, 10592298707, 10592298706, 2838809215, 10592298687, 10592298688, 2838809220, 10592298689, 2838809219, 2838809223, 2021550211, 2838809228, 10592298690, 10592288403, 10592288402, 2838809249, 2838809253, 10592288401, 10592288400, 2021550240, 2838809257, 2838809260, 10592288399, 2838809262, 2021550242], "tags": {"amenity": "bus_station", "bus": "yes", "name": "\u017bera\u0144 FSO", "public_transport": "station", "wheelchair": "yes"}}, {"type": "way", "id": 279673468, "nodes": [10729513153, 2838813912, 2838813911, 10729513156, 10729513154, 10729513153], "tags": {"addr:city": "Warszawa", "addr:city:simc": "0918123", "addr:housenumber": "1", "addr:street": "Modli\u0144ska", "building": "transportation", "building:levels": "1", "public_transport": "station", "roof:shape": "flat", "source:addr": "mapa.um.warszawa.pl", "tram": "yes"}}, {"type": "way", "id": 1137307359, "nodes": [2625395641, 10601710289, 10601710290, 10601710291, 10601710292, 10601710293, 10601710294, 10601710295, 10601710296, 10601710297, 10601710298, 10601710299, 10601710300, 10601710333, 10601710301, 10601710302, 10601710325, 10601710303, 10601710304, 10601710305, 10601710306, 10601710307, 10601710308, 10601710309, 10601710310, 10601710311, 10601710312, 10601710313, 10601710314, 10601710315, 10601710316, 10601710317, 10601710318, 10601710319, 10601710320, 10601710321, 10601710223, 2625395657, 2625395653, 10601710322, 2625395656, 2625395652, 10601710288, 2625395641], "tags": {"amenity": "bus_station", "bus": "yes", "name": "Esperanto", "operator": "ZTM Warszawa", "public_transport": "station", "wheelchair": "yes"}}, {"type": "way", "id": 1210868865, "nodes": [1973690714, 9830884545, 9830884541, 9830884540, 9830884534, 9830884539, 9830884538, 9830884537, 9830884536, 9830884535, 9830884533, 1973690748, 9830884550, 1973690749, 10273617509, 10273616008, 1973690742, 9830884604, 9830884607, 9830884576, 9830884577, 9830884579, 9830884578, 10273617522, 10273617518, 10273617520, 10273617519, 10273617517, 10273617514, 2851416880, 9830884438, 1973690608, 1973690603, 11218820474, 8809005110, 2851416862, 2851416864, 2851416866, 2851416869, 2851416872, 2851416875, 2851416878, 2851416883, 2851416884, 9522935204, 2851416885, 10273615981, 8809005636, 10273615982, 9830884622, 10273615983, 8809005637, 10273615984, 8809005638, 8809005639, 10108758737, 8809005640, 8809005641, 8809005642, 8809005643, 8809005644, 8809005645, 8809005646, 8809005647, 8809005648, 8809005649, 8809005650, 11218820473, 9830884549, 9830884548, 10599839190, 9830884531, 9520477492, 9830884559, 1973690586, 9830884673, 1973690705, 9830884565, 1973690714], "tags": {"amenity": "bus_station", "bus": "yes", "name": "Br\u00f3dno-Podgrodzie", "operator": "ZTM Warszawa", "public_transport": "station"}}, {"type": "way", "id": 1239251704, "nodes": [11512561134, 11512561135, 11512561136, 11512561137, 11512561138, 11512561139, 11512561140, 11512561141, 11512561142, 11512561143, 8568754917, 11512561144, 11512561145, 11512561146, 11512561147, 11512561148, 11512561149, 11512561150, 11512561151, 11512561152, 11512561153, 11512561154, 11512561155, 11512561156, 11512561107, 11512561157, 11512561158, 11512561159, 11512561160, 11512561161, 11512561162, 11512561163, 11512561164, 11512561165, 11512561166, 11512561167, 11512561168, 11512561134], "tags": {"amenity": "bus_station", "bus": "yes", "name": "Winnica", "network": "ZTM Warszawa", "operator": "WTP", "public_transport": "station"}}, {"type": "way", "id": 1281487229, "nodes": [11893877031, 11663745456, 11663745455, 11663745458, 2920886295, 11893714065, 11893714066, 11893714067, 2920886294, 11893714068, 2920886292, 11893877032, 11893877033, 11207997508, 11207997507, 11207997506, 11207997517, 11893877034, 11207997518, 1982884844, 1982884845, 1839586072, 1839586020, 1982884847, 11893876674, 11207997528, 11207997529, 11893876676, 1839586014, 11893877068, 1839586016, 11893876677, 11893877035, 11893877036, 11893877037, 11893877038, 11893877039, 11893877031], "tags": {"amenity": "bus_station", "bus": "yes", "name": "Gwia\u017adzista", "network": "ZTM Warszawa", "network:wikidata": "Q8066998", "public_transport": "station"}}, {"type": "way", "id": 1288327079, "nodes": [9988423110, 9988423111, 9988423112, 4735832766, 10016776267, 10016776265, 10016776264, 9988433086, 9988433087, 9988433088, 9988433089, 9988433090, 9988433071, 9988433091, 9988433092, 9992616563, 9992616554, 9992616564, 9992616565, 9992616555, 9988433066, 9988433065, 9988433063, 9988433062, 10016776268, 9988433061, 9992616558, 9992616559, 9988433059, 9988433058, 9992616573, 9992616550, 9992616574, 9992616575, 9992616576, 9992616577, 9992616578, 4735832753, 9992616580, 4735832755, 4735832759, 4735832764, 4735832762, 9988433047, 9988433046, 9988433045, 9988433044, 9988433020, 9988423096, 9988423097, 9988423098, 9988423099, 9988423100, 9988423101, 9988423102, 9988423095, 9988423104, 9988423103, 9988423105, 9988423106, 9988423107, 9988423108, 9988423109, 9988433021, 9988433022, 9988433023, 3391106287, 9988423110], "tags": {"alt_name": "Dworzec Wschodni (Lubelska)", "amenity": "bus_station", "bus": "yes", "name": "Dw. Wschodni (Lubelska)", "name:ru": "\u0410\u0432\u0442\u043e\u0432\u043e\u043a\u0437\u0430\u043b \u0412\u0430\u0440\u0448\u0430\u0432\u0430 \u0412\u0441\u0445\u043e\u0434\u043d\u044f", "name:uk": "\u0410\u0432\u0442\u043e\u0432\u043e\u043a\u0437\u0430\u043b \u0412\u0430\u0440\u0448\u0430\u0432\u0430 \u0412\u0441\u0445\u043e\u0434\u043d\u044f", "network": "ZTM Warszawa", "network:wikidata": "Q8066998", "public_transport": "station", "wheelchair": "yes"}}, {"type": "way", "id": 1288327080, "nodes": [11947535136, 10576387408, 9623836247, 10576387405, 9623836244, 9623836242, 10576387493, 10576387496, 9623836237, 9623836239, 10576387497, 3406336831, 3406336832, 3406336833, 3406336835, 3406336837, 3406336838, 3406336840, 11947535137, 11947535138, 11947535145, 11947535139, 11947535140, 11947535141, 12613433534, 11947535142, 11947535143, 11947535136], "tags": {"alt_name": "Dworzec Wschodni (Kijowska)", "amenity": "bus_station", "bus": "yes", "name": "Dw. Wschodni (Kijowska)", "network": "ZTM Warszawa", "network:wikidata": "Q8066998", "public_transport": "station"}}, {"type": "way", "id": 1327606551, "nodes": [12282503312, 12282503313, 12488166880, 12488166869, 12406920115, 12138462458, 8826199963, 12282503315, 12282503312], "tags": {"amenity": "bus_station", "bus": "yes", "name": "Plac Defilad", "name:ru": "\u041f\u043b\u043e\u0449\u0430\u0434\u044c \u0414\u0435\u0444\u0438\u043b\u0430\u0434", "name:uk": "\u041f\u043b\u043e\u0449\u0430 \u0414\u0435\u0444\u0456\u043b\u044f\u0434", "public_transport": "station", "wheelchair": "yes"}}]}